{"type": "FeatureCollection", "features": [{"type": "Feature", "geometry": {"type": "Point", "coordinates": [-76.96729827999997, 36.87918226600004]}, "properties": {"letter": "A"}}, {"type": "Feature", "geometry": {"type": "Point", "coordinates": [-76.96733867699999, 36.87919606100007]}, "properties": {"letter": "B"}}, {"type": "Feature", "geometry": {"type": "Point", "coordinates": [-76.96738224199999, 36.87921436200003]}, "properties": {"letter": "C"}}, {"type": "Feature", "geometry": {"type": "Point", "coordinates": [-76.96743263299999, 36.879231970000035]}, "properties": {"letter": "D"}}, {"type": "Feature", "geometry": {"type": "Point", "coordinates": [-76.96747407099997, 36.87924868400006]}, "properties": {"letter": "E"}}, {"type": "Feature", "geometry": {"type": "Point", "coordinates": [-76.96750399699994, 36.87925637700005]}, "properties": {"letter": "F"}}, {"type": "Feature", "geometry": {"type": "Point", "coordinates": [-76.96754419599995, 36.879272627000034]}, "properties": {"letter": "G"}}, {"type": "Feature", "geometry": {"type": "Point", "coordinates": [-76.96758189699995, 36.87931495600003]}, "properties": {"letter": "H"}}, {"type": "Feature", "geometry": {"type": "Point", "coordinates": [-76.96762248399995, 36.879331645000036]}, "properties": {"letter": "I"}}, {"type": "Feature", "geometry": {"type": "Point", "coordinates": [-76.96766723199994, 36.87935192200007]}, "properties": {"letter": "J"}}, {"type": "Feature", "geometry": {"type": "Point", "coordinates": [-76.96769768799999, 36.87936441100004]}, "properties": {"letter": "K"}}, {"type": "Feature", "geometry": {"type": "Point", "coordinates": [-76.96772940899996, 36.87937481700004]}, "properties": {"letter": "L"}}, {"type": "Feature", "geometry": {"type": "Point", "coordinates": [-76.96778401299997, 36.87939793100003]}, "properties": {"letter": "M"}}, {"type": "Feature", "geometry": {"type": "Point", "coordinates": [-76.96783172199997, 36.879408787000045]}, "properties": {"letter": "N"}}, {"type": "Feature", "geometry": {"type": "Point", "coordinates": [-76.96785970399998, 36.87941974800003]}, "properties": {"letter": "O"}}, {"type": "Feature", "geometry": {"type": "Point", "coordinates": [-76.96790529999998, 36.879437609000036]}, "properties": {"letter": "P"}}, {"type": "Feature", "geometry": {"type": "Point", "coordinates": [-76.96793214999997, 36.879448128000035]}, "properties": {"letter": "Q"}}, {"type": "Feature", "geometry": {"type": "Point", "coordinates": [-76.96797824599997, 36.87946618400008]}, "properties": {"letter": "R"}}, {"type": "Feature", "geometry": {"type": "Point", "coordinates": [-76.96800897699995, 36.879478222000046]}, "properties": {"letter": "S"}}, {"type": "Feature", "geometry": {"type": "Point", "coordinates": [-76.96805507299996, 36.87949627800003]}, "properties": {"letter": "T"}}, {"type": "Feature", "geometry": {"type": "Point", "coordinates": [-76.96808580299995, 36.879508315000066]}, "properties": {"letter": "U"}}]}