{"type": "FeatureCollection", "features": [{"type": "Feature", "geometry": {"type": "Polygon", "coordinates": [[[-76.96897381899998, 36.87923822800008], [-76.96816574399998, 36.87954395100007], [-76.96825377699997, 36.879662696000025], [-76.96757566299993, 36.87991366000006], [-76.96645424699994, 36.878470341000025], [-76.96657774699997, 36.878466400000036], [-76.96697923199997, 36.87829657000003], [-76.96707156799994, 36.878330034000044], [-76.96722627199995, 36.87814210000005], [-76.96733136599994, 36.87810665500007], [-76.96753320699997, 36.87799466000007], [-76.96766477499995, 36.87800906800004], [-76.96780636299997, 36.87793829700007], [-76.96801045999996, 36.877926236000064], [-76.96807059699995, 36.87791415300006], [-76.96832222599994, 36.87791000800007], [-76.96835797399996, 36.87805749200004], [-76.96838153399995, 36.878154419000055], [-76.96897381899998, 36.87923822800008]]]}, "properties": {}}]}