{"type": "FeatureCollection", "features": [{"type": "Feature", "geometry": {"type": "Point", "coordinates": [-76.96732913599999, 36.879209572000036]}, "properties": {"id": 1, "name": "WALTER WEST LAINE, JR", "birth": "1918-09-18", "death": "1962-01-26", "age": "43", "vet": null, "conflict": null, "link": "https://www.findagrave.com/memorial/109747161/walter-west-laine", "note": null}}, {"type": "Feature", "geometry": {"type": "Point", "coordinates": [-76.96732244699996, 36.87922357300005]}, "properties": {"id": 2, "name": "GLADYS WOODLIEF LAINE", "birth": "1924-06-10", "death": "1990-05-21", "age": "65", "vet": null, "conflict": null, "link": "https://www.findagrave.com/memorial/109747214/gladys-laine", "note": null}}, {"type": "Feature", "geometry": {"type": "Point", "coordinates": [-76.96737765199998, 36.879226438000046]}, "properties": {"id": 3, "name": "FLOYD HOLDEN STEPHENSON", "birth": "1874-10-06", "death": "1939-11-11", "age": "65", "vet": null, "conflict": null, "link": "https://www.findagrave.com/memorial/109746409/floyd-holden-stephenson", "note": null}}, {"type": "Feature", "geometry": {"type": "Point", "coordinates": [-76.96737132899995, 36.879237654000065]}, "properties": {"id": 4, "name": "MAGGIE OLIVIA STEPHENSON", "birth": "1879-06-14", "death": "1962-10-23", "age": "83", "vet": null, "conflict": null, "link": "https://www.findagrave.com/memorial/109746458/maggie-olivia-stephenson", "note": null}}, {"type": "Feature", "geometry": {"type": "Point", "coordinates": [-76.96729870099995, 36.87927582000003]}, "properties": {"id": 5, "name": "TOM RILEY BROADWAY, JR.", "birth": "1947-02-09", "death": "1993-01-10", "age": "45", "vet": "YES", "conflict": "VIETNAM", "link": "https://www.findagrave.com/memorial/109747269/tom-riley-broadaway", "note": null}}, {"type": "Feature", "geometry": {"type": "Point", "coordinates": [-76.96729150999994, 36.87928565400006]}, "properties": {"id": 7, "name": "JEANE E. WARD", "birth": "1934-06-19", "death": "1993-05-27", "age": "58", "vet": null, "conflict": null, "link": "https://www.findagrave.com/memorial/109747318/jeane-e-ward", "note": null}}, {"type": "Feature", "geometry": {"type": "Point", "coordinates": [-76.96728680399997, 36.87929969800007]}, "properties": {"id": 9, "name": "JACK LAVERNE HARDT", "birth": "1941-01-20", "death": "2016-10-11", "age": "75", "vet": "YES", "conflict": null, "link": "https://www.findagrave.com/memorial/171205834/jack-laverne-hardt", "note": null}}, {"type": "Feature", "geometry": {"type": "Point", "coordinates": [-76.96736482099999, 36.87924885700005]}, "properties": {"id": 10, "name": "LEMUEL H. CANNON, JR.", "birth": "1916-09-06", "death": "1997-09-17", "age": "81", "vet": "YES", "conflict": "WW2", "link": "https://www.findagrave.com/memorial/109746336/lemuel-h-cannon", "note": null}}, {"type": "Feature", "geometry": {"type": "Point", "coordinates": [-76.96736168299998, 36.87926027900005]}, "properties": {"id": 11, "name": "MARGARET ELIZABETH STEPHENSON CANNON", "birth": "1921-10-16", "death": "2014-01-17", "age": "92", "vet": null, "conflict": null, "link": null, "note": null}}, {"type": "Feature", "geometry": {"type": "Point", "coordinates": [-76.96735136199999, 36.87927952700005]}, "properties": {"id": 12, "name": "PETER G. BOOTHE", "birth": "1867-01-01", "death": "1953-01-01", "age": "85-86", "vet": null, "conflict": null, "link": "https://www.findagrave.com/memorial/35917569/peter-g-boothe", "note": null}}, {"type": "Feature", "geometry": {"type": "Point", "coordinates": [-76.96734474699997, 36.87929030400005]}, "properties": {"id": 13, "name": "BESSIE W. BOOTHE", "birth": "1888-01-01", "death": "1956-01-01", "age": "67-68", "vet": null, "conflict": null, "link": "https://www.findagrave.com/memorial/35917601/bessie-boothe", "note": null}}, {"type": "Feature", "geometry": {"type": "Point", "coordinates": [-76.96733788799997, 36.87930350500005]}, "properties": {"id": 14, "name": "GROVER C. NIBLETT", "birth": "1887-09-10", "death": "1976-05-27", "age": "88", "vet": "YES", "conflict": "WWI", "link": "https://www.findagrave.com/memorial/109746214/grover-c-niblett", "note": null}}, {"type": "Feature", "geometry": {"type": "Point", "coordinates": [-76.96733446999997, 36.879313437000064]}, "properties": {"id": 15, "name": "INFANT NIBLETT", "birth": null, "death": null, "age": null, "vet": null, "conflict": null, "link": null, "note": null}}, {"type": "Feature", "geometry": {"type": "Point", "coordinates": [-76.96732807199999, 36.879323570000054]}, "properties": {"id": 16, "name": "FEATHER R. NEBLETT", "birth": null, "death": null, "age": null, "vet": null, "conflict": null, "link": "https://www.findagrave.com/memorial/109746100/feather-r-neblett", "note": null}}, {"type": "Feature", "geometry": {"type": "Point", "coordinates": [-76.96732474099997, 36.87932282400004]}, "properties": {"id": 17, "name": "BENJAMIN NEBLETT", "birth": null, "death": null, "age": null, "vet": null, "conflict": null, "link": "https://www.findagrave.com/memorial/109746055/benjamin-neblett", "note": null}}, {"type": "Feature", "geometry": {"type": "Point", "coordinates": [-76.96732585799998, 36.87932041600004]}, "properties": {"id": 18, "name": "ROBERT NEBLETT", "birth": "1882-01-01", "death": "1951-01-01", "age": "68-69", "vet": null, "conflict": null, "link": "https://www.findagrave.com/memorial/109746014/robert-neblett", "note": null}}, {"type": "Feature", "geometry": {"type": "Point", "coordinates": [-76.96731177099997, 36.879346904000045]}, "properties": {"id": 19, "name": "ALBERT N. RAIFORD", "birth": "1828-07-15", "death": "1895-08-03", "age": "67", "vet": "YES", "conflict": "CIVIL WAR", "link": "https://www.findagrave.com/memorial/109745936/albert-n-raiford", "note": null}}, {"type": "Feature", "geometry": {"type": "Point", "coordinates": [-76.96729510699998, 36.87939066600006]}, "properties": {"id": 20, "name": "ROBERT E. MITCHELL", "birth": "1935-05-10", "death": "2016-12-03", "age": "81", "vet": null, "conflict": null, "link": null, "note": null}}, {"type": "Feature", "geometry": {"type": "Point", "coordinates": [-76.96729348299993, 36.87938927500005]}, "properties": {"id": 21, "name": "JEAN M. MITCHELL", "birth": "1939-03-22", "death": "2016-12-02", "age": "77", "vet": null, "conflict": null, "link": null, "note": null}}, {"type": "Feature", "geometry": {"type": "Point", "coordinates": [-76.96741857499995, 36.879254168000045]}, "properties": {"id": 22, "name": "WILLIAM KENNETH WHITFIELD", "birth": "1871-10-08", "death": "1946-09-09", "age": "74", "vet": null, "conflict": null, "link": "https://www.findagrave.com/memorial/109746521/william-kenneth-whitfield", "note": null}}, {"type": "Feature", "geometry": {"type": "Point", "coordinates": [-76.96741367499999, 36.879264087000024]}, "properties": {"id": 23, "name": "MYRA STEPHENSON WHITFIELD", "birth": "1872-12-12", "death": "1952-11-19", "age": "79", "vet": null, "conflict": null, "link": "https://www.findagrave.com/memorial/109746559/myra-whitfield", "note": null}}, {"type": "Feature", "geometry": {"type": "Point", "coordinates": [-76.96740846399996, 36.87927637400003]}, "properties": {"id": 24, "name": "JASPER W. WHITFIELD", "birth": "1898-09-11", "death": "1939-03-12", "age": "40", "vet": null, "conflict": null, "link": "https://www.findagrave.com/memorial/109746874/jasper-w-whitfield", "note": null}}, {"type": "Feature", "geometry": {"type": "Point", "coordinates": [-76.96740210199994, 36.87929025200003]}, "properties": {"id": 25, "name": "FRANCES \"FANNIE\" BRANCH HOLDEN STEPHENSON", "birth": "1815-05-12", "death": "1889-12-28", "age": "74", "vet": null, "conflict": null, "link": "https://www.findagrave.com/memorial/109747123/fannie-stephenson", "note": null}}, {"type": "Feature", "geometry": {"type": "Point", "coordinates": [-76.96740135899995, 36.87930371700003]}, "properties": {"id": 26, "name": "WILLIAM HENRY HOLDEN, SR.", "birth": "1806-08-06", "death": "1839-08-08", "age": "33", "vet": null, "conflict": null, "link": "https://www.findagrave.com/memorial/109747085/william-h-holden", "note": null}}, {"type": "Feature", "geometry": {"type": "Point", "coordinates": [-76.96738846599999, 36.879313126000056]}, "properties": {"id": 27, "name": "J. ALLEN STEPHENSON", "birth": "1869-11-27", "death": "1947-09-28", "age": "77", "vet": null, "conflict": null, "link": "https://www.findagrave.com/memorial/109747033/j-allen-stephenson", "note": null}}, {"type": "Feature", "geometry": {"type": "Point", "coordinates": [-76.96737078699994, 36.87936954300005]}, "properties": {"id": 28, "name": "LOUETTA CLARK ELLIS", "birth": "1886-01-11", "death": "1979-12-19", "age": "93", "vet": null, "conflict": null, "link": "https://www.findagrave.com/memorial/109745807/louetta-ellis", "note": null}}, {"type": "Feature", "geometry": {"type": "Point", "coordinates": [-76.96740740699994, 36.879386769000064]}, "properties": {"id": 29, "name": "JAMES LEVERSON ELLIS", "birth": "1872-12-05", "death": "1928-05-04", "age": "55", "vet": null, "conflict": null, "link": "https://www.findagrave.com/memorial/109740199/james-leverson-ellis", "note": null}}, {"type": "Feature", "geometry": {"type": "Point", "coordinates": [-76.96744434999994, 36.87940566000003]}, "properties": {"id": 30, "name": "PATRICK B. BRANCH", "birth": "1834-05-23", "death": "1896-12-31", "age": "62", "vet": "YES", "conflict": "CIVIL WAR-PVT. CO D 3 VA INF CSA", "link": "https://www.findagrave.com/memorial/109745739/patrick-b-branch", "note": null}}, {"type": "Feature", "geometry": {"type": "Point", "coordinates": [-76.96749623999995, 36.879273617000024]}, "properties": {"id": 31, "name": "JAMES PRESLEY RAIFORD", "birth": "1882-10-26", "death": "1965-06-21", "age": "82", "vet": null, "conflict": null, "link": "https://www.findagrave.com/memorial/109739921/james-presley-raiford", "note": null}}, {"type": "Feature", "geometry": {"type": "Point", "coordinates": [-76.96749090699996, 36.87928628700007]}, "properties": {"id": 32, "name": "ADDIE MORRIS RAIFORD", "birth": "1883-01-06", "death": "1966-05-08", "age": "83", "vet": null, "conflict": null, "link": "https://www.findagrave.com/memorial/109739882/addie-raiford", "note": null}}, {"type": "Feature", "geometry": {"type": "Point", "coordinates": [-76.96746700899996, 36.879262192000056]}, "properties": {"id": 33, "name": "MARION JAMES RAIFORD, SR.", "birth": "1906-03-31", "death": "1992-11-10", "age": "86", "vet": null, "conflict": null, "link": "https://www.findagrave.com/memorial/109739957/marion-james-raiford", "note": null}}, {"type": "Feature", "geometry": {"type": "Point", "coordinates": [-76.96745957799999, 36.87927665400008]}, "properties": {"id": 34, "name": "ESTHER COLLIER RAIFORD", "birth": "1906-11-17", "death": "1999-09-18", "age": "92", "vet": null, "conflict": null, "link": "https://www.findagrave.com/memorial/109740002/florence-esther-raiford", "note": null}}, {"type": "Feature", "geometry": {"type": "Point", "coordinates": [-76.96747715399994, 36.87931517100003]}, "properties": {"id": 35, "name": "JOHN THOMAS BOWDEN", "birth": "1844-10-10", "death": "1930-02-14", "age": "85", "vet": "YES", "conflict": "CIVIL WAR-CO D VA INF CSA", "link": "https://www.findagrave.com/memorial/56367915/john-thomas-bowden", "note": null}}, {"type": "Feature", "geometry": {"type": "Point", "coordinates": [-76.96746981799998, 36.87932857100003]}, "properties": {"id": 36, "name": "FRANCES ALEXANDRA \"ALEXINA\" BOOTHE BOWDEN", "birth": "1844-09-15", "death": "1917-12-29", "age": "73", "vet": null, "conflict": null, "link": "https://www.findagrave.com/memorial/56367955/frances-alexandra-bowden", "note": null}}, {"type": "Feature", "geometry": {"type": "Point", "coordinates": [-76.96744765099999, 36.87930473900008]}, "properties": {"id": 37, "name": "LIZZIE L. BOWDEN", "birth": "1861-06-06", "death": "1883-08-13", "age": "22", "vet": null, "conflict": null, "link": "https://www.findagrave.com/memorial/56368025/lizzie-l-bowden", "note": null}}, {"type": "Feature", "geometry": {"type": "Point", "coordinates": [-76.96744015399997, 36.87931785400008]}, "properties": {"id": 38, "name": "JOHN THOMAS BOWDEN", "birth": "1844-10-10", "death": "1930-02-14", "age": "85", "vet": null, "conflict": null, "link": "https://www.findagrave.com/memorial/56367915/john-thomas-bowden", "note": null}}, {"type": "Feature", "geometry": {"type": "Point", "coordinates": [-76.96753528599999, 36.87928847000006]}, "properties": {"id": 39, "name": "OSCAR WILLIAMS BRANCHE", "birth": "1902-12-31", "death": "1965-05-06", "age": "62", "vet": null, "conflict": null, "link": "https://www.findagrave.com/memorial/56368223/oscar-williams-branche", "note": null}}, {"type": "Feature", "geometry": {"type": "Point", "coordinates": [-76.96752930299994, 36.87930042800008]}, "properties": {"id": 40, "name": "ETHEL CLAIRE BRANCHE", "birth": "1904-08-15", "death": "1942-03-08", "age": "37", "vet": null, "conflict": null, "link": "https://www.findagrave.com/memorial/56368048/ethel-claire-branche", "note": null}}, {"type": "Feature", "geometry": {"type": "Point", "coordinates": [-76.96752280099997, 36.879313833000026]}, "properties": {"id": 41, "name": "SARAH WILLIAMS BRANCHE", "birth": "1873-01-01", "death": "1937-01-01", "age": "63-64", "vet": null, "conflict": null, "link": "https://www.findagrave.com/memorial/56368323/sarah-branche", "note": null}}, {"type": "Feature", "geometry": {"type": "Point", "coordinates": [-76.96751554499997, 36.87932677900005]}, "properties": {"id": 42, "name": "WILLIAM T. BRANCHE", "birth": "1858-01-01", "death": "1936-01-01", "age": "77-78", "vet": null, "conflict": null, "link": "https://www.findagrave.com/memorial/56368262/william-t-branche", "note": null}}, {"type": "Feature", "geometry": {"type": "Point", "coordinates": [-76.96750885999995, 36.87934258100006]}, "properties": {"id": 43, "name": "ORICE Q. HINES", "birth": "1883-08-12", "death": "1907-07-25", "age": "23", "vet": null, "conflict": null, "link": "https://www.findagrave.com/memorial/109739704/orice-q-hines", "note": null}}, {"type": "Feature", "geometry": {"type": "Point", "coordinates": [-76.96750312399996, 36.879355436000026]}, "properties": {"id": 44, "name": "PATTY BARNES HINES", "birth": "1885-05-06", "death": "1974-12-10", "age": "89", "vet": null, "conflict": null, "link": "https://www.findagrave.com/memorial/109739746/patty-hines", "note": null}}, {"type": "Feature", "geometry": {"type": "Point", "coordinates": [-76.96747020399994, 36.87943405900006]}, "properties": {"id": 45, "name": "RICHARD A. BRANCH", "birth": "1889-08-16", "death": "1929-11-25", "age": "40", "vet": null, "conflict": null, "link": null, "note": null}}, {"type": "Feature", "geometry": {"type": "Point", "coordinates": [-76.96743447699998, 36.879423419000034]}, "properties": {"id": 46, "name": "CHARLIE Q. MUNFORD", "birth": "1867-01-01", "death": "1907-01-01", "age": "39-40", "vet": null, "conflict": null, "link": "https://www.findagrave.com/memorial/109740414/charlie-q-munford", "note": null}}, {"type": "Feature", "geometry": {"type": "Point", "coordinates": [-76.96742937399995, 36.879433239000036]}, "properties": {"id": 47, "name": "MATTIE S. MUNFORD", "birth": "1869-01-01", "death": "1932-01-01", "age": "62-63", "vet": null, "conflict": null, "link": "https://www.findagrave.com/memorial/109740435/mattie-s-munford", "note": null}}, {"type": "Feature", "geometry": {"type": "Point", "coordinates": [-76.96746612699997, 36.87944649800005]}, "properties": {"id": 48, "name": "EULA BRANCH WEST", "birth": "1895-04-10", "death": "1988-03-01", "age": "92", "vet": null, "conflict": null, "link": "https://www.findagrave.com/memorial/109739522/eula-west", "note": null}}, {"type": "Feature", "geometry": {"type": "Point", "coordinates": [-76.96741809599996, 36.879470069000035]}, "properties": {"id": 49, "name": "LANNIE MORRIS CHITWOOD", "birth": "1949-09-05", "death": "2017-05-31", "age": "67", "vet": null, "conflict": null, "link": "https://www.findagrave.com/memorial/180773652/lannie-morris-chitwood", "note": null}}, {"type": "Feature", "geometry": {"type": "Point", "coordinates": [-76.96747701699996, 36.87941475900004]}, "properties": {"id": 50, "name": "PVT. JOHN HENRY BRANCH", "birth": "1836-08-04", "death": "1863-07-03", "age": "26", "vet": "YES", "conflict": "CIVIL WAR  CO D\r\n3 VA INF\r\nCSA\r\nKIA", "link": "https://www.findagrave.com/memorial/109739591/john-henry-branch", "note": null}}, {"type": "Feature", "geometry": {"type": "Point", "coordinates": [-76.96748570499994, 36.87939349200008]}, "properties": {"id": 51, "name": "JOHN F. BRANCH", "birth": "1880-09-25", "death": "1910-02-01", "age": "29", "vet": null, "conflict": null, "link": "https://www.findagrave.com/memorial/109739670/john-f-branch", "note": null}}, {"type": "Feature", "geometry": {"type": "Point", "coordinates": [-76.96752831399994, 36.87941428900007]}, "properties": {"id": 52, "name": "ALEXANDER BARLOW", "birth": "1851-12-23", "death": "1923-07-11", "age": "70", "vet": null, "conflict": null, "link": "https://www.findagrave.com/memorial/56365603/alexander-barlow", "note": null}}, {"type": "Feature", "geometry": {"type": "Point", "coordinates": [-76.96752519499995, 36.87942436800006]}, "properties": {"id": 53, "name": "SUSAN MEREDITH PRICE BARLOW", "birth": "1848-05-22", "death": "1912-12-12", "age": "64", "vet": null, "conflict": null, "link": "https://www.findagrave.com/memorial/56366433/susan_meredith_barlow", "note": null}}, {"type": "Feature", "geometry": {"type": "Point", "coordinates": [-76.96753439199995, 36.87940250100007]}, "properties": {"id": 57, "name": "ORA VIRGINIA \"ORIE\" BARLOW BOOTHE", "birth": "1881-02-10", "death": "1956-04-20", "age": "75", "vet": null, "conflict": null, "link": "https://www.findagrave.com/memorial/56367891/ora-virginia-boothe", "note": null}}, {"type": "Feature", "geometry": {"type": "Point", "coordinates": [-76.96754114299995, 36.879392292000034]}, "properties": {"id": 58, "name": "LEONARD HUGHLAND BOOTHE", "birth": "1881-07-31", "death": "1958-02-22", "age": "76", "vet": null, "conflict": null, "link": "https://www.findagrave.com/memorial/56367861/leonard-hughland-boothe", "note": null}}, {"type": "Feature", "geometry": {"type": "Point", "coordinates": [-76.96756337999994, 36.87934832600007]}, "properties": {"id": 59, "name": "MARY WOMBLE WORRELL", "birth": "1831-10-18", "death": "1923-02-08", "age": "91", "vet": null, "conflict": null, "link": "https://www.findagrave.com/memorial/5656858/mary-worrell", "note": null}}, {"type": "Feature", "geometry": {"type": "Point", "coordinates": [-76.96757051799995, 36.87933530500004]}, "properties": {"id": 60, "name": "JAMES M. WORRELL", "birth": "1864-02-15", "death": "1929-09-25", "age": "65", "vet": null, "conflict": null, "link": "https://www.findagrave.com/memorial/109739330/james_m_worrell", "note": null}}, {"type": "Feature", "geometry": {"type": "Point", "coordinates": [-76.96761748799997, 36.87934945000006]}, "properties": {"id": 61, "name": "ANDREW J. WARREN", "birth": "1870-10-13", "death": "1945-03-27", "age": "74", "vet": null, "conflict": null, "link": "https://www.findagrave.com/memorial/89205818/andrew-j-warren", "note": null}}, {"type": "Feature", "geometry": {"type": "Point", "coordinates": [-76.96761015699997, 36.879360044000066]}, "properties": {"id": 62, "name": "MATTIE SLADE WARREN", "birth": "1882-12-02", "death": "1974-04-26", "age": "91", "vet": null, "conflict": null, "link": "https://www.findagrave.com/memorial/89206007/mattie_warren", "note": null}}, {"type": "Feature", "geometry": {"type": "Point", "coordinates": [-76.96758156099997, 36.87941968900003]}, "properties": {"id": 63, "name": "ANNIE ELLSWORTH WARREN", "birth": "1893-03-31", "death": "1925-02-20", "age": "31", "vet": null, "conflict": null, "link": "https://www.findagrave.com/memorial/84747539/annie-warren", "note": null}}, {"type": "Feature", "geometry": {"type": "Point", "coordinates": [-76.96757411999994, 36.879431073000035]}, "properties": {"id": 64, "name": "WILLIE THOMAS WARREN, SR.", "birth": "1887-11-01", "death": "1943-09-16", "age": "55", "vet": null, "conflict": null, "link": "https://www.findagrave.com/memorial/84747785/willie_thomas_warren", "note": null}}, {"type": "Feature", "geometry": {"type": "Point", "coordinates": [-76.96756295999995, 36.87944349400004]}, "properties": {"id": 65, "name": "ISABELLE STORY WARREN", "birth": "1902-01-01", "death": "1965-06-06", "age": "63", "vet": null, "conflict": null, "link": "https://www.findagrave.com/memorial/89206160/isabelle-story-warren", "note": null}}, {"type": "Feature", "geometry": {"type": "Point", "coordinates": [-76.96756315999994, 36.87945524700007]}, "properties": {"id": 66, "name": "HERBERT CALVIN WARREN", "birth": "1930-03-12", "death": "1930-09-27", "age": "6 MONTHS", "vet": null, "conflict": null, "link": "https://www.findagrave.com/memorial/89206259/herbert-calvin-warren", "note": null}}, {"type": "Feature", "geometry": {"type": "Point", "coordinates": [-76.96753751199998, 36.87950745300003]}, "properties": {"id": 67, "name": "JAMES FRANKLIN ELLIS", "birth": "1927-03-12", "death": "1932-04-11", "age": "5", "vet": null, "conflict": null, "link": "https://www.findagrave.com/memorial/109739015/james-franklin-ellis", "note": null}}, {"type": "Feature", "geometry": {"type": "Point", "coordinates": [-76.96753239699996, 36.879516645000024]}, "properties": {"id": 68, "name": "JESSE ROBERT ELLIS, SR.", "birth": "1898-09-09", "death": "1940-02-03", "age": "41", "vet": null, "conflict": null, "link": "https://www.findagrave.com/memorial/109738986/jesse_robert_ellis", "note": null}}, {"type": "Feature", "geometry": {"type": "Point", "coordinates": [-76.96757019999995, 36.87953184300005]}, "properties": {"id": 69, "name": "RICHARD OWEN BRANTLEY", "birth": "1896-01-01", "death": "1970-01-01", "age": "73-74", "vet": null, "conflict": null, "link": "https://www.findagrave.com/memorial/56368346/richard-owen-brantley", "note": null}}, {"type": "Feature", "geometry": {"type": "Point", "coordinates": [-76.96756378599997, 36.87954210500004]}, "properties": {"id": 70, "name": "ELIZABETH IRENE ELLIS BRANTLEY", "birth": "1902-09-06", "death": "1959-06-23", "age": "56", "vet": null, "conflict": null, "link": "https://www.findagrave.com/memorial/56368426/elizabeth-irene-brantley", "note": null}}, {"type": "Feature", "geometry": {"type": "Point", "coordinates": [-76.96763087799997, 36.87955537400006]}, "properties": {"id": 71, "name": "ARCHER WHITLEY \"BEAN\" PEDEN, JR.", "birth": "1940-12-21", "death": "2001-03-27", "age": "60", "vet": null, "conflict": null, "link": "https://www.findagrave.com/memorial/178048694/archer-whitley-peden", "note": null}}, {"type": "Feature", "geometry": {"type": "Point", "coordinates": [-76.96762429199998, 36.87956458800005]}, "properties": {"id": 72, "name": "ANNIE SARAH WELLS PEDEN", "birth": "1945-11-13", "death": "2014-01-15", "age": "68", "vet": null, "conflict": null, "link": "https://www.findagrave.com/memorial/123696218/annie_sarah_peden", "note": null}}, {"type": "Feature", "geometry": {"type": "Point", "coordinates": [-76.96759289699997, 36.87949886100006]}, "properties": {"id": 73, "name": "BERTHA RAIFORD BULLS", "birth": "1894-08-25", "death": "1944-06-09", "age": "49", "vet": null, "conflict": null, "link": "https://www.findagrave.com/memorial/192045945/bertha-bulls", "note": null}}, {"type": "Feature", "geometry": {"type": "Point", "coordinates": [-76.96762269399994, 36.87943839400003]}, "properties": {"id": 74, "name": "CHARLES CHAPMAN WILLS, SR.", "birth": "1868-01-01", "death": "1925-01-01", "age": "56-57", "vet": null, "conflict": null, "link": "https://www.findagrave.com/memorial/109738738/charles-chapman-wills", "note": null}}, {"type": "Feature", "geometry": {"type": "Point", "coordinates": [-76.96761420599995, 36.87944939000005]}, "properties": {"id": 75, "name": "NANCY ANNIS BARLOW WILLS", "birth": "1876-01-01", "death": "1945-01-01", "age": "68-69", "vet": null, "conflict": null, "link": "https://www.findagrave.com/memorial/109738760/nancy_annis_wills", "note": null}}, {"type": "Feature", "geometry": {"type": "Point", "coordinates": [-76.96765094999995, 36.87944859700008]}, "properties": {"id": 76, "name": "CLARENCE L. WILLS", "birth": "1911-01-01", "death": "1926-01-01", "age": "14-15", "vet": null, "conflict": null, "link": "https://www.findagrave.com/memorial/109738715/clarence-l-wills", "note": null}}, {"type": "Feature", "geometry": {"type": "Point", "coordinates": [-76.96764455299996, 36.879461279000054]}, "properties": {"id": 77, "name": "CLYDE T. WILLS", "birth": "1907-01-01", "death": "1971-01-01", "age": "63-64", "vet": null, "conflict": null, "link": "https://www.findagrave.com/memorial/109738700/clyde-t-wills", "note": null}}, {"type": "Feature", "geometry": {"type": "Point", "coordinates": [-76.96764758199998, 36.87938920800008]}, "properties": {"id": 78, "name": "WILLIAM BERNARD GRIFFIN", "birth": "1911-05-20", "death": "1994-12-28", "age": "83", "vet": null, "conflict": null, "link": "https://www.findagrave.com/memorial/30850721/william-bernard-griffin", "note": null}}, {"type": "Feature", "geometry": {"type": "Point", "coordinates": [-76.96765871199995, 36.87943519400005]}, "properties": {"id": 79, "name": "WILLARD AUBREY SPIVEY", "birth": "1912-09-14", "death": "1913-06-13", "age": "8 MONTHS", "vet": null, "conflict": null, "link": "https://www.findagrave.com/memorial/50595572/willard-aubrey-spivey", "note": null}}, {"type": "Feature", "geometry": {"type": "Point", "coordinates": [-76.96766514199999, 36.879424905000064]}, "properties": {"id": 80, "name": "REBECCA JANE BARLOW SPIVEY", "birth": "1871-10-25", "death": "1915-06-13", "age": "43", "vet": null, "conflict": null, "link": "https://www.findagrave.com/memorial/44828336/rebecca-jane-spivey", "note": null}}, {"type": "Feature", "geometry": {"type": "Point", "coordinates": [-76.96767198499998, 36.87941341100003]}, "properties": {"id": 81, "name": "JOHN ROBERT SPIVEY", "birth": "1867-04-13", "death": "1938-06-12", "age": "71", "vet": null, "conflict": null, "link": "https://www.findagrave.com/memorial/45010272/john_robert_spivey", "note": null}}, {"type": "Feature", "geometry": {"type": "Point", "coordinates": [-76.96767855399997, 36.87940180700008]}, "properties": {"id": 82, "name": "VIRGINIA BAIN SPIVEY", "birth": "1880-12-12", "death": "1967-07-22", "age": "86", "vet": null, "conflict": null, "link": "https://www.findagrave.com/memorial/50595862/virginia-spivey", "note": null}}, {"type": "Feature", "geometry": {"type": "Point", "coordinates": [-76.96770730699996, 36.879411815000026]}, "properties": {"id": 83, "name": "EMMA LOUISE SPIVEY", "birth": "1918-03-01", "death": "2003-11-29", "age": "85", "vet": null, "conflict": null, "link": "https://www.findagrave.com/memorial/50595362/emma-louise-spivey", "note": null}}, {"type": "Feature", "geometry": {"type": "Point", "coordinates": [-76.96770059999994, 36.87942385700006]}, "properties": {"id": 84, "name": "R. CLARENCE SPIVEY", "birth": "1978-08-30", "death": "1978-08-30", "age": "69", "vet": null, "conflict": null, "link": "https://www.findagrave.com/memorial/50595938/r-clarence-spivey", "note": null}}, {"type": "Feature", "geometry": {"type": "Point", "coordinates": [-76.96769266899997, 36.87943436300003]}, "properties": {"id": 85, "name": "GERALDINE RAWLINGS", "birth": "1909-09-17", "death": "1932-12-24", "age": "23", "vet": null, "conflict": null, "link": "https://www.findagrave.com/memorial/109738478/geraldine-rawlings", "note": null}}, {"type": "Feature", "geometry": {"type": "Point", "coordinates": [-76.96768882899994, 36.879445313000076]}, "properties": {"id": 86, "name": "JERIMIAH GUY SPIVEY", "birth": "1905-03-22", "death": "1924-05-16", "age": "19", "vet": null, "conflict": null, "link": "https://www.findagrave.com/memorial/109738441/jerimiah-guy-spivey", "note": null}}, {"type": "Feature", "geometry": {"type": "Point", "coordinates": [-76.96766838799994, 36.87943816500007]}, "properties": {"id": 87, "name": "ALLEN LAWSON SPIVEY", "birth": "1938-10-25", "death": "2007-04-02", "age": "68", "vet": null, "conflict": null, "link": "https://www.findagrave.com/memorial/50595518/allen-lawson-spivey", "note": null}}, {"type": "Feature", "geometry": {"type": "Point", "coordinates": [-76.96767376099996, 36.879475410000055]}, "properties": {"id": 88, "name": "ASHTON \"MERT\" MEREDITH FELTS, JR.", "birth": "1947-12-19", "death": "2020-05-17", "age": "72", "vet": null, "conflict": null, "link": "https://www.findagrave.com/memorial/211148601/ashton-meredith-felts", "note": null}}, {"type": "Feature", "geometry": {"type": "Point", "coordinates": [-76.96772358799996, 36.87950188600007]}, "properties": {"id": 89, "name": "RAY CARLTON HARRIS", "birth": "1905-09-29", "death": "1966-02-11", "age": "60", "vet": null, "conflict": null, "link": "https://www.findagrave.com/memorial/54006244/ray-carlton-harris", "note": null}}, {"type": "Feature", "geometry": {"type": "Point", "coordinates": [-76.96771470299996, 36.879512282000064]}, "properties": {"id": 90, "name": "VIVIAN VICK HARRIS", "birth": "1905-03-16", "death": "1958-05-19", "age": "53", "vet": null, "conflict": null, "link": "https://www.findagrave.com/memorial/54007093/vivian_harris", "note": null}}, {"type": "Feature", "geometry": {"type": "Point", "coordinates": [-76.96773556399995, 36.87948067700006]}, "properties": {"id": 91, "name": "VICTOR RAY HARRIS", "birth": "1933-12-18", "death": "1935-07-29", "age": "1", "vet": null, "conflict": null, "link": "https://www.findagrave.com/memorial/54008672/victor-ray-harris", "note": null}}, {"type": "Feature", "geometry": {"type": "Point", "coordinates": [-76.96777781599997, 36.87940843000007]}, "properties": {"id": 92, "name": "BETTIE SADLER", "birth": "1862-12-01", "death": "1945-08-01", "age": "86", "vet": null, "conflict": null, "link": "https://www.findagrave.com/memorial/109703636/bettie-sadler", "note": null}}, {"type": "Feature", "geometry": {"type": "Point", "coordinates": [-76.96777046199998, 36.87941992300006]}, "properties": {"id": 93, "name": "JULIAN HENRY SADLER", "birth": "1859-12-19", "death": "1950-06-13", "age": "90", "vet": null, "conflict": null, "link": "https://www.findagrave.com/memorial/109703583/julian-henry-sadler", "note": null}}, {"type": "Feature", "geometry": {"type": "Point", "coordinates": [-76.96776276799994, 36.87943168900006]}, "properties": {"id": 94, "name": "CHARLES A. SADLER", "birth": "1897-04-15", "death": "1961-06-30", "age": "64", "vet": null, "conflict": null, "link": "https://www.findagrave.com/memorial/109703545/charles-a-sadler", "note": null}}, {"type": "Feature", "geometry": {"type": "Point", "coordinates": [-76.96775626599998, 36.879443594000065]}, "properties": {"id": 95, "name": "REBECCA R. SADLER", "birth": "1853-12-04", "death": "1930-02-28", "age": "76", "vet": null, "conflict": null, "link": "https://www.findagrave.com/memorial/109703665/rebecca-r-sadler", "note": null}}, {"type": "Feature", "geometry": {"type": "Point", "coordinates": [-76.96770604099999, 36.87952362000004]}, "properties": {"id": 97, "name": "ANNIE WARREN BUHLS", "birth": "1898-10-13", "death": "1979-03-21", "age": "80", "vet": null, "conflict": null, "link": "https://www.findagrave.com/memorial/109703871/annie-buhls", "note": null}}, {"type": "Feature", "geometry": {"type": "Point", "coordinates": [-76.96770034199994, 36.87953658300006]}, "properties": {"id": 98, "name": "OWEN SMITH BUHLS", "birth": "1903-05-19", "death": "1985-03-30", "age": "81", "vet": null, "conflict": null, "link": "https://www.findagrave.com/memorial/109703948/owen_smith_buhls", "note": null}}, {"type": "Feature", "geometry": {"type": "Point", "coordinates": [-76.96769180899997, 36.879548052000075]}, "properties": {"id": 99, "name": "WARREN SMITH BUHLS, SR", "birth": "1933-01-01", "death": "2001-01-20", "age": "67-68", "vet": null, "conflict": null, "link": "https://www.findagrave.com/memorial/20857730/warren_smith_buhls", "note": null}}, {"type": "Feature", "geometry": {"type": "Point", "coordinates": [-76.96768457099995, 36.87955937300006]}, "properties": {"id": 100, "name": "ANNE BUHLS", "birth": "1968-01-01", "death": "1987-01-01", "age": "18-19", "vet": null, "conflict": null, "link": null, "note": null}}, {"type": "Feature", "geometry": {"type": "Point", "coordinates": [-76.96767900699996, 36.879571105000025]}, "properties": {"id": 101, "name": "MATTHEW \"MATT\" JASON CORNWELL", "birth": "1976-03-11", "death": "1982-11-08", "age": "6", "vet": null, "conflict": null, "link": "https://www.findagrave.com/memorial/53438729/matthew-jason-cornwell", "note": null}}, {"type": "Feature", "geometry": {"type": "Point", "coordinates": [-76.96766567199995, 36.879590130000054]}, "properties": {"id": 102, "name": "NANCY PAIGE DUNN CORNWELL", "birth": "1950-05-19", "death": "2010-06-07", "age": "60", "vet": null, "conflict": null, "link": "https://www.findagrave.com/memorial/53438578/nancy-paige-cornwell", "note": null}}, {"type": "Feature", "geometry": {"type": "Point", "coordinates": [-76.96766060799996, 36.87960138300008]}, "properties": {"id": 103, "name": "ROBERT JAMES DUNN, JR.", "birth": "1919-03-02", "death": "1996-06-29", "age": "77", "vet": null, "conflict": null, "link": "https://www.findagrave.com/memorial/54577258/robert-james-dunn", "note": null}}, {"type": "Feature", "geometry": {"type": "Point", "coordinates": [-76.96765470099996, 36.87960908800005]}, "properties": {"id": 104, "name": "CATHERINE BELLE EDWARDS DUNN", "birth": "1921-04-12", "death": "2002-05-03", "age": "81", "vet": null, "conflict": null, "link": "https://www.findagrave.com/memorial/53438690/catherine-belle-dunn", "note": null}}, {"type": "Feature", "geometry": {"type": "Point", "coordinates": [-76.96781610399995, 36.87942315400005]}, "properties": {"id": 105, "name": "EMMETT OSCAR DREWRY", "birth": "1932-06-18", "death": "1992-12-22", "age": "60", "vet": null, "conflict": null, "link": "https://www.findagrave.com/memorial/50595418/emmett-oscar-drewry", "note": null}}, {"type": "Feature", "geometry": {"type": "Point", "coordinates": [-76.96780350899996, 36.879447414000026]}, "properties": {"id": 106, "name": "HERMAN W. WADE", "birth": "1906-04-12", "death": "1993-10-01", "age": "87", "vet": null, "conflict": null, "link": "https://www.findagrave.com/memorial/109703261/herman_w_wade", "note": null}}, {"type": "Feature", "geometry": {"type": "Point", "coordinates": [-76.96779399499997, 36.87945835600004]}, "properties": {"id": 107, "name": "LIZZIE SLADE WADE", "birth": "1906-04-11", "death": "1992-02-26", "age": "85", "vet": null, "conflict": null, "link": "https://www.findagrave.com/memorial/109703302/lizzie-wade", "note": null}}, {"type": "Feature", "geometry": {"type": "Point", "coordinates": [-76.96778774999996, 36.87947175800008]}, "properties": {"id": 108, "name": "CHARLES HUDSON SLADE", "birth": "1876-01-04", "death": "1939-06-23", "age": "63", "vet": null, "conflict": null, "link": "https://www.findagrave.com/memorial/50595455/charles-hudson-slade", "note": null}}, {"type": "Feature", "geometry": {"type": "Point", "coordinates": [-76.96777910699996, 36.87948357800008]}, "properties": {"id": 109, "name": "LUCY BEALE WARREN SLADE", "birth": "1866-10-01", "death": "1937-12-13", "age": "71", "vet": null, "conflict": null, "link": "https://www.findagrave.com/memorial/50595481/lucy-beale-slade", "note": null}}, {"type": "Feature", "geometry": {"type": "Point", "coordinates": [-76.96774232199994, 36.879546454000035]}, "properties": {"id": 110, "name": "ROBERT LEE \"BUCK\" HARRUP, SR.", "birth": "1921-01-16", "death": "1994-01-03", "age": "72", "vet": null, "conflict": null, "link": "https://www.findagrave.com/memorial/33785024/robert-lee-harrup", "note": null}}, {"type": "Feature", "geometry": {"type": "Point", "coordinates": [-76.96773467099996, 36.879553455000064]}, "properties": {"id": 111, "name": "ANNIE BELLE BRANCH HARRUP", "birth": "1924-12-03", "death": "2016-10-01", "age": "91", "vet": null, "conflict": null, "link": "https://www.findagrave.com/memorial/109703147/annie-belle-harrup", "note": null}}, {"type": "Feature", "geometry": {"type": "Point", "coordinates": [-76.96771802799998, 36.87958314300005]}, "properties": {"id": 112, "name": "OSCAR JAMES DICKERSON, JR.", "birth": "1938-01-20", "death": "1995-12-13", "age": "57", "vet": "YES", "conflict": null, "link": "https://www.findagrave.com/memorial/109703054/oscar-james-dickerson", "note": null}}, {"type": "Feature", "geometry": {"type": "Point", "coordinates": [-76.96784696599997, 36.87943549800008]}, "properties": {"id": 113, "name": "JOHN NICHOLAS BRITTLE", "birth": "1867-07-20", "death": "1930-07-20", "age": "63", "vet": null, "conflict": null, "link": "https://www.findagrave.com/memorial/56368526/john-nicholas-brittle", "note": null}}, {"type": "Feature", "geometry": {"type": "Point", "coordinates": [-76.96783995299995, 36.87944726500007]}, "properties": {"id": 114, "name": "ADLAID HERRIN BRITTLE", "birth": "1869-07-06", "death": "1936-10-08", "age": "67", "vet": null, "conflict": null, "link": "https://www.findagrave.com/memorial/56368556/adlaid-brittle", "note": null}}, {"type": "Feature", "geometry": {"type": "Point", "coordinates": [-76.96779855999995, 36.87951663800004]}, "properties": {"id": 115, "name": "MAZIE HINES STEPHENSON", "birth": "1912-07-05", "death": "1990-04-25", "age": "77", "vet": null, "conflict": null, "link": "https://www.findagrave.com/memorial/109702777/mazie-stephenson", "note": null}}, {"type": "Feature", "geometry": {"type": "Point", "coordinates": [-76.96779052699998, 36.879527034000034]}, "properties": {"id": 116, "name": "SAMUEL BRISTOW STEPHENSON", "birth": "1909-02-01", "death": "1990-04-14", "age": "81", "vet": null, "conflict": null, "link": "https://www.findagrave.com/memorial/109702710/samuel_bristow_stephenson", "note": null}}, {"type": "Feature", "geometry": {"type": "Point", "coordinates": [-76.96775426899995, 36.87958614400003]}, "properties": {"id": 117, "name": "CLARA MARIE RAIFORD BAINES", "birth": "1942-01-06", "death": "1993-06-18", "age": "51", "vet": null, "conflict": null, "link": "https://www.findagrave.com/memorial/56363617/clara-marie-baines", "note": null}}, {"type": "Feature", "geometry": {"type": "Point", "coordinates": [-76.96774777299999, 36.87959489800005]}, "properties": {"id": 118, "name": "CODY LEWIS STALLARD", "birth": "1992-05-15", "death": "2009-01-31", "age": "16", "vet": null, "conflict": null, "link": "https://www.findagrave.com/memorial/34543787/cody-lewis-stallard", "note": null}}, {"type": "Feature", "geometry": {"type": "Point", "coordinates": [-76.96787393299996, 36.879493371000024]}, "properties": {"id": 119, "name": "PAUL LEE BRADSHAW", "birth": "1947-03-10", "death": "1986-07-17", "age": "39", "vet": null, "conflict": null, "link": "https://www.findagrave.com/memorial/109702609/paul-lee-bradshaw", "note": null}}]}