{"type": "FeatureCollection", "features": [{"type": "Feature", "geometry": {"type": "Polygon", "coordinates": [[[-76.96786699299997, 36.87943550500006], [-76.96785129899996, 36.87946092000004], [-76.96782803599996, 36.87945139100003], [-76.96782103099997, 36.879448522000075], [-76.96783707699996, 36.879423186000054], [-76.96786699299997, 36.87943550500006]]]}, "properties": {"id": 3, "owner": "NICHOLAS BRITTLE", "size": "10X10", "notes": null, "plots": null}}, {"type": "Feature", "geometry": {"type": "Polygon", "coordinates": [[[-76.96785111099996, 36.87946084300006], [-76.96783615599998, 36.87948494300008], [-76.96783575699999, 36.87948559700004], [-76.96783559899995, 36.879485534000025], [-76.96783513599996, 36.87948533700006], [-76.96780576799995, 36.87947283700004], [-76.96780554599997, 36.879472743000065], [-76.96782083799997, 36.87944860400006], [-76.96782094999998, 36.879448428000046], [-76.96782100899998, 36.87944845200008], [-76.96782106099994, 36.87944847400007], [-76.96782803599996, 36.87945139100003], [-76.96782806499994, 36.879451403000076], [-76.96785111099996, 36.87946084300006]]]}, "properties": {"id": 4, "owner": "DALE PROCTOR", "size": "10X10", "notes": null, "plots": null}}, {"type": "Feature", "geometry": {"type": "Polygon", "coordinates": [[[-76.96780570699997, 36.87947281000004], [-76.96780576799995, 36.87947283700004], [-76.96783513599996, 36.87948533700006], [-76.96783559899995, 36.879485534000025], [-76.96783575699999, 36.87948559700004], [-76.96780217499997, 36.87953838000004], [-76.96780212599998, 36.879538457000024], [-76.96780186099994, 36.879538352000054], [-76.96777178499997, 36.879526284000065], [-76.96777181799996, 36.87952623100006], [-76.96777273599997, 36.879524753000055], [-76.96780570699997, 36.87947281000004]]]}, "properties": {"id": 6, "owner": "SAM STEPHENSON", "size": "10X20", "notes": null, "plots": null}}, {"type": "Feature", "geometry": {"type": "Polygon", "coordinates": [[[-76.96774099199996, 36.879574425000044], [-76.96777177899997, 36.87952628100004], [-76.96780186099994, 36.879538352000054], [-76.96780212599998, 36.879538457000024], [-76.96777164899999, 36.87958678900003], [-76.96774099199996, 36.879574425000044]]]}, "properties": {"id": 7, "owner": "RANDAL BRANCH", "size": "10X20", "notes": null, "plots": null}}, {"type": "Feature", "geometry": {"type": "Polygon", "coordinates": [[[-76.96774112999998, 36.87957442000004], [-76.96777174999994, 36.87958663200004], [-76.96774104799994, 36.87963430100007], [-76.96771123799994, 36.87962142400005], [-76.96771118499998, 36.879621404000034], [-76.96771086799998, 36.87962128500004], [-76.96774112999998, 36.87957442000004]]]}, "properties": {"id": 8, "owner": "KENNETH STALLARD", "size": "10X20", "notes": null, "plots": null}}, {"type": "Feature", "geometry": {"type": "Polygon", "coordinates": [[[-76.96775873399997, 36.879546824000045], [-76.96773450799998, 36.879584188000024], [-76.96772072899995, 36.87957860100005], [-76.96770466399994, 36.87957208700004], [-76.96772792699994, 36.879533983000044], [-76.96775851799998, 36.87954638400004], [-76.96775883999999, 36.87954651500007], [-76.96775866099995, 36.87954679500007], [-76.96775873399997, 36.879546824000045]]]}, "properties": {"id": 9, "owner": "ROBERT HARRUP", "size": "10X15", "notes": null, "plots": null}}, {"type": "Feature", "geometry": {"type": "Polygon", "coordinates": [[[-76.96775877399995, 36.87954661800006], [-76.96775866099995, 36.87954679500007], [-76.96775834399995, 36.87954666300004], [-76.96772785999997, 36.87953408300007], [-76.96772792599995, 36.879533982000055], [-76.96772785799999, 36.879533955000056], [-76.96773417799994, 36.879523661000064], [-76.96773429799998, 36.87952371100005], [-76.96775933699996, 36.87948336000005], [-76.96775910199995, 36.879483262000065], [-76.96775911699996, 36.879483238000034], [-76.96779045499994, 36.879496259000064], [-76.96779124899996, 36.879495588000054], [-76.96779074799997, 36.87949637600008], [-76.96778542399994, 36.87950475400004], [-76.96777868699996, 36.879515379000054], [-76.96777277299998, 36.87952469600003], [-76.96777273699996, 36.879524753000055], [-76.96777181799996, 36.87952623100006], [-76.96777178399998, 36.879526284000065], [-76.96777165299994, 36.87952649700003], [-76.96777159399994, 36.879526473000055], [-76.96777480699996, 36.879521425000064], [-76.96777793299998, 36.87951639700003], [-76.96777775399994, 36.879516323000075], [-76.96777151999999, 36.87952611000003], [-76.96777125299997, 36.87952600400007], [-76.96777109099997, 36.87952626400005], [-76.96777159399994, 36.879526473000055], [-76.96775877399995, 36.87954661800006]]]}, "properties": {"id": 10, "owner": "MARTHA KELLO", "size": "10X20", "notes": null, "plots": null}}, {"type": "Feature", "geometry": {"type": "Polygon", "coordinates": [[[-76.96778851099998, 36.87943481100007], [-76.96778874699999, 36.87943442200003], [-76.96782179799999, 36.87944709200008], [-76.96782094999998, 36.879448428000046], [-76.96782100899998, 36.87944845200008], [-76.96782105799997, 36.879448473000025], [-76.96779195399995, 36.87949402600003], [-76.96779201499999, 36.87949405100005], [-76.96779217999995, 36.87949412100005], [-76.96779124799997, 36.879495588000054], [-76.96779079799995, 36.87949596800007], [-76.96779053399996, 36.87949638600003], [-76.96779046799998, 36.87949635900003], [-76.96779040799998, 36.87949633300008], [-76.96779045499994, 36.879496259000064], [-76.96775911699996, 36.879483238000034], [-76.96775938299999, 36.879482798000026], [-76.96778851099998, 36.87943481100007]]]}, "properties": {"id": 11, "owner": "CHARLIE SLADE", "size": "10X10?", "notes": null, "plots": null}}, {"type": "Feature", "geometry": {"type": "Polygon", "coordinates": [[[-76.96770466399994, 36.87957208700004], [-76.96770477299998, 36.87957190800006], [-76.96772073399995, 36.87957860400007], [-76.96773441299996, 36.879584340000065], [-76.96771166899998, 36.879620043000045], [-76.96771086699994, 36.87962128700008], [-76.96768188299995, 36.87961037600007], [-76.96770456299998, 36.87957225500003], [-76.96770466399994, 36.87957208700004]]]}, "properties": {"id": 12, "owner": "ANN DICKERSON", "size": "10X16", "notes": null, "plots": null}}, {"type": "Feature", "geometry": {"type": "Polygon", "coordinates": [[[-76.96782190299996, 36.879446925000025], [-76.96778887599999, 36.879434211000046], [-76.96779607299999, 36.87942235300005], [-76.96780334199997, 36.879410378000046], [-76.96783581199998, 36.87942282400007], [-76.96783691699994, 36.87942324900007], [-76.96782938699994, 36.879435123000064], [-76.96782190299996, 36.879446925000025]]]}, "properties": {"id": 13, "owner": "H.W. WADE", "size": "10X10?", "notes": null, "plots": null}}, {"type": "Feature", "geometry": {"type": "Polygon", "coordinates": [[[-76.96779650599996, 36.87940829400003], [-76.96776804899997, 36.87945623200005], [-76.96774059499995, 36.87944629000003], [-76.96773430899998, 36.87944399000003], [-76.96776382499996, 36.87939586600004], [-76.96779650599996, 36.87940829400003]]]}, "properties": {"id": 14, "owner": "CHARLIE SADLER", "size": "10X18", "notes": null, "plots": null}}, {"type": "Feature", "geometry": {"type": "Polygon", "coordinates": [[[-76.96775240599999, 36.87948032000003], [-76.96772044499994, 36.87946898000007], [-76.96773454599997, 36.87947392800004], [-76.96772099399999, 36.87946907800006], [-76.96772776299997, 36.87945634400006], [-76.96773431599996, 36.879444017000026], [-76.96774059499995, 36.87944629000003], [-76.96773430899998, 36.87944399000003], [-76.96773438199995, 36.879443870000046], [-76.96776809299996, 36.879456281000046], [-76.96776805599995, 36.879456342000026], [-76.96776799499997, 36.87945632000003], [-76.96776058899997, 36.87946823200008], [-76.96775295099997, 36.87948051500007], [-76.96775268799996, 36.87948042100004], [-76.96775240599999, 36.87948032000003]]]}, "properties": {"id": 16, "owner": "???", "size": "10X10", "notes": null, "plots": null}}, {"type": "Feature", "geometry": {"type": "Polygon", "coordinates": [[[-76.96775255099999, 36.879480638000075], [-76.96772585099995, 36.87952317600008], [-76.96772581599998, 36.879523232000054], [-76.96770097299998, 36.87951478300005], [-76.96769425899998, 36.87951250000003], [-76.96772020899994, 36.87946898800004], [-76.96773441299996, 36.87947393200005], [-76.96775275399995, 36.87948031600007], [-76.96775268799996, 36.87948041900006], [-76.96775255099999, 36.879480638000075]]]}, "properties": {"id": 17, "owner": "RAY HARRIS", "size": "10X17", "notes": null, "plots": null}}, {"type": "Feature", "geometry": {"type": "Polygon", "coordinates": [[[-76.96772540199999, 36.87952332200007], [-76.96769661699994, 36.87957109300004], [-76.96769656299995, 36.87957118400004], [-76.96766639899994, 36.87955978400004], [-76.96767336199997, 36.87954784900006], [-76.96768038599998, 36.87953580800007], [-76.96768736499996, 36.87952384700003], [-76.96769423099994, 36.87951208000004], [-76.96769448799995, 36.879512168000076], [-76.96770115399994, 36.87951445400006], [-76.96772541899998, 36.87952329500007], [-76.96772540199999, 36.87952332200007]]]}, "properties": {"id": 18, "owner": "W.S.BUHLS", "size": "10X20", "notes": null, "plots": null}}, {"type": "Feature", "geometry": {"type": "Polygon", "coordinates": [[[-76.96767013399995, 36.87944789000005], [-76.96766963299996, 36.87944769300003], [-76.96766957199998, 36.87944779800006], [-76.96763949499996, 36.87943588700006], [-76.96763973599997, 36.87943544400008], [-76.96764589999998, 36.87942410100004], [-76.96764600399996, 36.87942413900004], [-76.96764613399995, 36.87942389700004], [-76.96765251199997, 36.879412065000054], [-76.96765890799998, 36.87940019400003], [-76.96765897899996, 36.87940003600005], [-76.96766072299994, 36.87939682800004], [-76.96766546199996, 36.87938810700007], [-76.96767190799994, 36.879376249000074], [-76.96767831799997, 36.87936445400004], [-76.96771037799994, 36.879376268000044], [-76.96774158299996, 36.87938776900006], [-76.96770079599997, 36.87946016200004], [-76.96767007399995, 36.87944799600007], [-76.96767013399995, 36.87944789000005]]]}, "properties": {"id": 21, "owner": "SPIVEY FAMILY", "size": "10X27", "notes": null, "plots": null}}, {"type": "Feature", "geometry": {"type": "Polygon", "coordinates": [[[-76.96767810699998, 36.87936457100005], [-76.96763925999994, 36.87943608300003], [-76.96763855699999, 36.879435811000064], [-76.96760785299995, 36.879423916000064], [-76.96764693899996, 36.87935252700004], [-76.96764696499997, 36.87935248000008], [-76.96767823899995, 36.879364327000076], [-76.96767810699998, 36.87936457100005]]]}, "properties": {"id": 22, "owner": "CLARENCE GRIFFIN", "size": "10X20?", "notes": null, "plots": null}}, {"type": "Feature", "geometry": {"type": "Polygon", "coordinates": [[[-76.96763856199993, 36.879502122000076], [-76.96763849099995, 36.87950209600007], [-76.96763843099995, 36.879502209000066], [-76.96763811699998, 36.87950209500008], [-76.96764070999996, 36.87949761900006], [-76.96764607599994, 36.87948835700007], [-76.96764768199995, 36.879485584000065], [-76.96765386399994, 36.87947491400007], [-76.96765463999998, 36.87947357200005], [-76.96765465999994, 36.879473551000046], [-76.96766171499996, 36.87946136000005], [-76.96766202599997, 36.879460823000045], [-76.96766955899994, 36.87944782100004], [-76.96766957199998, 36.87944779800006], [-76.96767007399995, 36.87944799600007], [-76.96770079599997, 36.87946016200004], [-76.96770088699998, 36.87946019900005], [-76.96767215999995, 36.879511671000046], [-76.96767086299997, 36.87951400500003], [-76.96764997699995, 36.879506408000054], [-76.96763849899997, 36.87950223400003], [-76.96763856199993, 36.879502122000076]]]}, "properties": {"id": 23, "owner": "A.M. FELTS, JR", "size": "10X20", "notes": null, "plots": null}}, {"type": "Feature", "geometry": {"type": "Polygon", "coordinates": [[[-76.96766938099995, 36.879448127000046], [-76.96764309599996, 36.879493500000024], [-76.96764070999996, 36.87949761900006], [-76.96761043899994, 36.879486462000045], [-76.96761060799997, 36.879486163000024], [-76.96758004099996, 36.879474877000064], [-76.96760751999994, 36.87942408200007], [-76.96760765499994, 36.879423839000026], [-76.96760785299995, 36.879423916000064], [-76.96763855699999, 36.879435811000064], [-76.96763925999994, 36.87943608300003], [-76.96766955899994, 36.87944782100004], [-76.96766938099995, 36.879448127000046]]]}, "properties": {"id": 24, "owner": "CHARLES WILLS", "size": "20X20", "notes": null, "plots": null}}, {"type": "Feature", "geometry": {"type": "Polygon", "coordinates": [[[-76.96767086299997, 36.87951400500003], [-76.96764992599998, 36.879506408000054], [-76.96767073699993, 36.87951420500008], [-76.96766514299998, 36.87952461400005], [-76.96765952599998, 36.87953506500003], [-76.96765388099999, 36.87954556600005], [-76.96764855099997, 36.879555485000026], [-76.96764800299997, 36.879555303000075], [-76.96761582499994, 36.87954484900007], [-76.96761590899996, 36.87954469500005], [-76.96761616099997, 36.879544793000036], [-76.96762198599998, 36.87953361900003], [-76.96762748599997, 36.87952306300008], [-76.96763296099994, 36.879512556000066], [-76.96763732099998, 36.87950418500003], [-76.96763835199994, 36.879502209000066], [-76.96763803699997, 36.87950209500008], [-76.96763813799998, 36.87950192000005], [-76.96767086299997, 36.87951400500003]]]}, "properties": {"id": 30, "owner": "E.R, LOWE, JR.", "size": "10X15", "notes": null, "plots": null}}, {"type": "Feature", "geometry": {"type": "Polygon", "coordinates": [[[-76.96755606199997, 36.87952161700008], [-76.96758043199998, 36.879475021000076], [-76.96761060799997, 36.879486163000024], [-76.96761043899994, 36.879486462000045], [-76.96764071099994, 36.87949762000005], [-76.96761792499996, 36.87954028200005], [-76.96761618299996, 36.87954349300003], [-76.96758601299996, 36.87953251600004], [-76.96755606199997, 36.87952161700008]]]}, "properties": {"id": 31, "owner": "BULLS FAMILY", "size": "20X18", "notes": null, "plots": null}}, {"type": "Feature", "geometry": {"type": "Polygon", "coordinates": [[[-76.96764881199994, 36.87955555800005], [-76.96762754899999, 36.87959560400003], [-76.96762736999995, 36.87959594200004], [-76.96762729699998, 36.879596080000056], [-76.96759457599995, 36.87958450000008], [-76.96761583999995, 36.87954485500006], [-76.96764800299997, 36.879555303000075], [-76.96764855099997, 36.879555485000026], [-76.96764859699994, 36.87955540000007], [-76.96764885099998, 36.879555484000036], [-76.96764881199994, 36.87955555800005]]]}, "properties": {"id": 32, "owner": "ARCHER PEDEN, JR.", "size": "10X16", "notes": null, "plots": null}}, {"type": "Feature", "geometry": {"type": "Polygon", "coordinates": [[[-76.96762715299997, 36.879595865000056], [-76.96760256399995, 36.87964173000006], [-76.96760108399997, 36.87964444700003], [-76.96756909299995, 36.879633428000034], [-76.96759471299998, 36.87958454900007], [-76.96759457599995, 36.87958450000008], [-76.96759468199997, 36.87958430300006], [-76.96762715299997, 36.879595865000056]]]}, "properties": {"id": 33, "owner": "SONNY WARREN", "size": "10X20", "notes": null, "plots": null}}, {"type": "Feature", "geometry": {"type": "Polygon", "coordinates": [[[-76.96766027799998, 36.87956969700008], [-76.96766615499996, 36.87955979900005], [-76.96766720399995, 36.87956019300003], [-76.96769597399998, 36.87957096300005], [-76.96766540499993, 36.87962016200004], [-76.96763620699994, 36.87961024100008], [-76.96764246199996, 36.87959970600008], [-76.96764843199998, 36.87958965000007], [-76.96765436999993, 36.87957964900005], [-76.96766027799998, 36.87956969700008]]]}, "properties": {"id": 35, "owner": "RONNIE CORNWELL", "size": "10X20", "notes": null, "plots": null}}, {"type": "Feature", "geometry": {"type": "Polygon", "coordinates": [[[-76.96753512599997, 36.879547529000035], [-76.96752303399995, 36.87957294000006], [-76.96748929399996, 36.87956252500004], [-76.96750212999996, 36.87953681600004], [-76.96753512599997, 36.879547529000035]]]}, "properties": {"id": 37, "owner": "WARREN FAMILY", "size": "10X10", "notes": null, "plots": null}}, {"type": "Feature", "geometry": {"type": "Polygon", "coordinates": [[[-76.96763637899994, 36.87934882400003], [-76.96757605199997, 36.87946576400003], [-76.96757550799998, 36.87946681300008], [-76.96757531499998, 36.87946675300003], [-76.96754288399995, 36.87945659900004], [-76.96754298699994, 36.879456393000055], [-76.96760219499998, 36.87933715300005], [-76.96760221199997, 36.87933712000006], [-76.96763637899994, 36.87934882400003]]]}, "properties": {"id": 39, "owner": "ANDREW WARREN", "size": "10X44", "notes": null, "plots": null}}, {"type": "Feature", "geometry": {"type": "Polygon", "coordinates": [[[-76.96754235599997, 36.879457108000054], [-76.96757141099994, 36.87946553000006], [-76.96757531499998, 36.87946675300003], [-76.96757035899998, 36.87947671500007], [-76.96756533799999, 36.879486807000035], [-76.96756031899997, 36.879496893000066], [-76.96755530599995, 36.87950697000008], [-76.96755029499997, 36.87951704000005], [-76.96754528799994, 36.87952710400003], [-76.96754028499998, 36.87953715900005], [-76.96753512499998, 36.879547528000046], [-76.96750262799998, 36.879536517000076], [-76.96750749299997, 36.879526792000036], [-76.96751252099995, 36.87951674400006], [-76.96751755199995, 36.87950668900004], [-76.96752258599997, 36.87949662700004], [-76.96752762399996, 36.87948655500003], [-76.96753266599995, 36.87947647800007], [-76.96753771099998, 36.87946639300003], [-76.96754235599997, 36.879457108000054]]]}, "properties": {"id": 40, "owner": "JAMES ELLIS", "size": "10X32", "notes": null, "plots": null}}, {"type": "Feature", "geometry": {"type": "Polygon", "coordinates": [[[-76.96761631799995, 36.87954405900007], [-76.96759479899998, 36.879584083000054], [-76.96759438699996, 36.87958393300005], [-76.96756516099998, 36.879573321000066], [-76.96753622099999, 36.879562813000064], [-76.96755606199997, 36.87952161700008], [-76.96755627999994, 36.87952169700003], [-76.96758601299996, 36.87953251700003], [-76.96758679399994, 36.87953278800006], [-76.96761617999994, 36.87954349700004], [-76.96761654399995, 36.87954363500006], [-76.96761631799995, 36.87954405900007]]]}, "properties": {"id": 41, "owner": "RICHARD BRANTLEY", "size": "20X16", "notes": null, "plots": null}}, {"type": "Feature", "geometry": {"type": "Polygon", "coordinates": [[[-76.96759438499998, 36.87933365500004], [-76.96757985899995, 36.87936226700003], [-76.96754053299998, 36.879348840000034], [-76.96755510499997, 36.87932060300005], [-76.96759454399995, 36.87933333600006], [-76.96759438499998, 36.87933365500004]]]}, "properties": {"id": 42, "owner": "J.M. WORRELL", "size": "10X11", "notes": null, "plots": null}}, {"type": "Feature", "geometry": {"type": "Polygon", "coordinates": [[[-76.96757969799995, 36.879362212000046], [-76.96756611899997, 36.879390510000064], [-76.96756476999997, 36.87939330300003], [-76.96753655999999, 36.879383973000074], [-76.96752590599993, 36.87938027600006], [-76.96752545399994, 36.879380119000075], [-76.96754068299998, 36.879348890000074], [-76.96757969799995, 36.879362212000046]]]}, "properties": {"id": 43, "owner": "JOHN BRANCHE", "size": "10X11", "notes": null, "plots": null}}, {"type": "Feature", "geometry": {"type": "Polygon", "coordinates": [[[-76.96750338599998, 36.879425309000055], [-76.96752590499995, 36.87938027600006], [-76.96753655999999, 36.879383973000074], [-76.96756477199995, 36.879393304000075], [-76.96754430199996, 36.879436362000035], [-76.96754358199996, 36.87943786000005], [-76.96750338599998, 36.879425309000055]]]}, "properties": {"id": 44, "owner": "LEONARD BOOTHE", "size": "10X17", "notes": null, "plots": null}}, {"type": "Feature", "geometry": {"type": "Polygon", "coordinates": [[[-76.96749593799996, 36.87933042800006], [-76.96752081299996, 36.87927332700008], [-76.96752093599997, 36.879273374000036], [-76.96752086999999, 36.87927352400004], [-76.96755650799997, 36.87928741300004], [-76.96753132099997, 36.87934119800008], [-76.96753112599998, 36.879341614000055], [-76.96749603499995, 36.87933044300007], [-76.96749593799996, 36.87933042800006]]]}, "properties": {"id": 45, "owner": "OSCAR BRANCH", "size": "11X20", "notes": null, "plots": null}}, {"type": "Feature", "geometry": {"type": "Polygon", "coordinates": [[[-76.96753084699998, 36.87934152500003], [-76.96751227499993, 36.87938195400005], [-76.96751169499998, 36.87938318500005], [-76.96750145599998, 36.879380138000045], [-76.96747750999998, 36.879372905000025], [-76.96747741399997, 36.87937287600005], [-76.96747729699996, 36.87937284000003], [-76.96747740199999, 36.879372602000046], [-76.96749573799997, 36.87933088400007], [-76.96749593799996, 36.87933042800006], [-76.96749603499995, 36.87933044300007], [-76.96753084699998, 36.87934152500003]]]}, "properties": {"id": 46, "owner": "ORICE HINES", "size": "11X15", "notes": null, "plots": null}}, {"type": "Feature", "geometry": {"type": "Polygon", "coordinates": [[[-76.96744217699995, 36.87936265600007], [-76.96744235199998, 36.879362284000024], [-76.96747729899994, 36.87937284000003], [-76.96747725599994, 36.87937293700003], [-76.96747736999998, 36.87937297000008], [-76.96750145399994, 36.879380137000055], [-76.96751169499998, 36.87938318500005], [-76.96751185899996, 36.879383234000045], [-76.96749351999995, 36.87942269200005], [-76.96749152599995, 36.87942695100003], [-76.96745728999997, 36.879415874000074], [-76.96742253199994, 36.87940462800003], [-76.96744217699995, 36.87936265600007]]]}, "properties": {"id": 47, "owner": "BRANCHE FAMILY", "size": "16X20", "notes": null, "plots": null}}, {"type": "Feature", "geometry": {"type": "Polygon", "coordinates": [[[-76.96748117599998, 36.879459660000066], [-76.96744425499998, 36.87944798400008], [-76.96744963899994, 36.87943523000007], [-76.96745502099998, 36.879422473000034], [-76.96749326199995, 36.87943415500007], [-76.96748737299998, 36.87944675700004], [-76.96748132199997, 36.879459706000034], [-76.96748117599998, 36.879459660000066]]]}, "properties": {"id": 48, "owner": "RICHARD BRANCHE", "size": "11X11", "notes": null, "plots": null}}, {"type": "Feature", "geometry": {"type": "Polygon", "coordinates": [[[-76.96739822799998, 36.87922736500008], [-76.96737661999998, 36.87927268400006], [-76.96733735599997, 36.87925914600004], [-76.96734306899998, 36.87924761800008], [-76.96734867199996, 36.87923631100006], [-76.96735429999995, 36.87922495200007], [-76.96735995399996, 36.87921354000008], [-76.96739822799998, 36.87922736500008]]]}, "properties": {"id": 52, "owner": "FLOYD STEPHENSON", "size": "12X16", "notes": null, "plots": null}}, {"type": "Feature", "geometry": {"type": "Polygon", "coordinates": [[[-76.96737280199994, 36.87927815100005], [-76.96735968699994, 36.879305575000046], [-76.96735962699995, 36.87930555400004], [-76.96735961299999, 36.879305584000065], [-76.96732096199997, 36.879291944000045], [-76.96732071599996, 36.87929185100006], [-76.96732713099993, 36.87927812800007], [-76.96733354399998, 36.87926440800004], [-76.96737280199994, 36.87927815100005]]]}, "properties": {"id": 53, "owner": "PETER BOOTHE", "size": "12X10", "notes": null, "plots": null}}, {"type": "Feature", "geometry": {"type": "Polygon", "coordinates": [[[-76.96731156999994, 36.879403066000066], [-76.96727331399995, 36.87939126800006], [-76.96727892499996, 36.87938053700003], [-76.96728182599998, 36.87938139900007], [-76.96731698299999, 36.87939201000006], [-76.96731156999994, 36.879403066000066]]]}, "properties": {"id": 54, "owner": "MITCHELL", "size": "10X4", "notes": null, "plots": null}}, {"type": "Feature", "geometry": {"type": "Polygon", "coordinates": [[[-76.96731710399996, 36.879391815000076], [-76.96727951899999, 36.879380713000046], [-76.96727892499996, 36.87938053700003], [-76.96727820199999, 36.87938032900007], [-76.96728479499996, 36.87936513300008], [-76.96729091399999, 36.879351031000056], [-76.96733009499997, 36.87936483300007], [-76.96732348199998, 36.87937856800005], [-76.96731710399996, 36.879391815000076]]]}, "properties": {"id": 58, "owner": "OCCUPIED UNKNOWN", "size": "12X10", "notes": null, "plots": null}}, {"type": "Feature", "geometry": {"type": "Polygon", "coordinates": [[[-76.96735956799995, 36.87930583600007], [-76.96734116199997, 36.87934279800004], [-76.96733995599999, 36.87934522100005], [-76.96730069599994, 36.87933141000008], [-76.96730573599996, 36.87932159300004], [-76.96731079299997, 36.87931174600004], [-76.96731586799996, 36.87930186300008], [-76.96732095799996, 36.87929194900005], [-76.96735962699995, 36.87930555400004], [-76.96735969699995, 36.87930557800007], [-76.96735956799995, 36.87930583600007]]]}, "properties": {"id": 59, "owner": "GROVER NIBLETT", "size": "12X16", "notes": null, "plots": null}}, {"type": "Feature", "geometry": {"type": "Polygon", "coordinates": [[[-76.96733045899998, 36.87936428800003], [-76.96729066999995, 36.87935093300007], [-76.96729567299997, 36.87934119100004], [-76.96730069599994, 36.87933141000008], [-76.96733995599999, 36.87934522100005], [-76.96733505899994, 36.87935505000007], [-76.96733045899998, 36.87936428800003]]]}, "properties": {"id": 60, "owner": "ALBERT RAIFORD", "size": "12X6", "notes": null, "plots": null}}, {"type": "Feature", "geometry": {"type": "Polygon", "coordinates": [[[-76.96736615599997, 36.87946008600005], [-76.96730186499997, 36.87943871900006], [-76.96730147399995, 36.879438589000074], [-76.96730671099994, 36.87942839300007], [-76.96731207799996, 36.87941794200003], [-76.96731747199993, 36.87940744100007], [-76.96732289399995, 36.87939688300003], [-76.96732834499994, 36.879386271000044], [-76.96736035899994, 36.87939651600004], [-76.96739254499994, 36.879406817000074], [-76.96738727599995, 36.87941745200004], [-76.96738200799996, 36.879428086000075], [-76.96737673999996, 36.87943872100004], [-76.96737147199997, 36.879449356000066], [-76.96736615599997, 36.87946008600005]]]}, "properties": {"id": 61, "owner": "HARRY LUTER", "size": "20X20", "notes": null, "plots": null}}, {"type": "Feature", "geometry": {"type": "Polygon", "coordinates": [[[-76.96734973599996, 36.87920741100004], [-76.96733418399998, 36.879237948000025], [-76.96733416299998, 36.87923799400005], [-76.96730194899999, 36.87922644200006], [-76.96731743899994, 36.879194968000036], [-76.96734973599996, 36.87920741100004]]]}, "properties": {"id": 62, "owner": "W. WEST LAINE", "size": "10X24", "notes": null, "plots": null}}, {"type": "Feature", "geometry": {"type": "Polygon", "coordinates": [[[-76.96733383899993, 36.87923782300004], [-76.96731660699999, 36.879275317000065], [-76.96728312499994, 36.87926478400004], [-76.96728286699994, 36.87926470200006], [-76.96728302399998, 36.87926437600004], [-76.96730140899996, 36.87922610500004], [-76.96730144099996, 36.87922603800007], [-76.96730203099997, 36.87922625300007], [-76.96733383899993, 36.87923782300004]]]}, "properties": {"id": 63, "owner": "BOBBY STEPHENSON", "size": "10X14", "notes": null, "plots": null}}, {"type": "Feature", "geometry": {"type": "Polygon", "coordinates": [[[-76.96731083199995, 36.87928726400003], [-76.96727743999998, 36.87927635600005], [-76.96728312499994, 36.87926478500003], [-76.96731654599995, 36.87927549700004], [-76.96731083199995, 36.87928726400003]]]}, "properties": {"id": 64, "owner": "TOM BROADWAY", "size": "10X4", "notes": null, "plots": null}}, {"type": "Feature", "geometry": {"type": "Polygon", "coordinates": [[[-76.96730529499996, 36.87929866800005], [-76.96727190499996, 36.87928762200005], [-76.96727743999998, 36.87927635600005], [-76.96731079099999, 36.87928735000003], [-76.96730529499996, 36.87929866800005]]]}, "properties": {"id": 67, "owner": "JEAN WARD", "size": "10X4", "notes": null, "plots": null}}, {"type": "Feature", "geometry": {"type": "Polygon", "coordinates": [[[-76.96729996099998, 36.87930977600007], [-76.96726765499994, 36.879299788000026], [-76.96726615799997, 36.87929931900004], [-76.96727190499996, 36.87928762200005], [-76.96727197899997, 36.879287471000055], [-76.96730538899999, 36.87929833700008], [-76.96730523999997, 36.87929865000007], [-76.96730249999996, 36.879304423000065], [-76.96729996099998, 36.87930977600007]]]}, "properties": {"id": 68, "owner": "JACK HARDT", "size": "10X4", "notes": null, "plots": null}}, {"type": "Feature", "geometry": {"type": "Polygon", "coordinates": [[[-76.96729527299993, 36.87921891000008], [-76.96726392399995, 36.87920666100007], [-76.96726362299995, 36.879206543000066], [-76.96727106699996, 36.879193600000065], [-76.96727869599994, 36.87918033900007], [-76.96730932999998, 36.87919214600004], [-76.96730230399999, 36.879205641000055], [-76.96729537399995, 36.87921895000005], [-76.96729527299993, 36.87921891000008]]]}, "properties": {"id": 69, "owner": "BULLS", "size": "10X10", "notes": null, "plots": null}}, {"type": "Feature", "geometry": {"type": "Polygon", "coordinates": [[[-76.96740905599995, 36.87923047900006], [-76.96744513099998, 36.879244345000075], [-76.96742292899995, 36.87928950000003], [-76.96738485999998, 36.87927600200004], [-76.96740905599995, 36.87923047900006]]]}, "properties": {"id": 74, "owner": "KENNETH WHITFIELD", "size": "11X16", "notes": null, "plots": null}}, {"type": "Feature", "geometry": {"type": "Polygon", "coordinates": [[[-76.96751658299996, 36.87927238700007], [-76.96751683199994, 36.87927248600005], [-76.96750981299994, 36.879286438000065], [-76.96750260999994, 36.87930075700007], [-76.96747098899993, 36.87929023100003], [-76.96747090799994, 36.87929039800008], [-76.96746934799995, 36.87928986600008], [-76.96744587199998, 36.87928186800008], [-76.96743768899995, 36.87927908000006], [-76.96744557099998, 36.879263741000045], [-76.96745385099996, 36.879247629000076], [-76.96745474899996, 36.87924798300003], [-76.96751658299996, 36.87927238700007]]]}, "properties": {"id": 76, "owner": "JIMMY RAIFORD", "size": "10X20", "notes": null, "plots": null}}, {"type": "Feature", "geometry": {"type": "Polygon", "coordinates": [[[-76.96750280899994, 36.87930082300005], [-76.96749702199998, 36.879314573000045], [-76.96749142399995, 36.87932787300008], [-76.96748594999997, 36.87934087900004], [-76.96748059099997, 36.879353611000056], [-76.96744592399995, 36.879341734000036], [-76.96741256499996, 36.87933030600004], [-76.96741881399998, 36.87931746400005], [-76.96742506399994, 36.87930462300005], [-76.96743131299996, 36.87929178200005], [-76.96743749499996, 36.87927907900007], [-76.96743778899997, 36.87927917700006], [-76.96750280899994, 36.87930082300005]]]}, "properties": {"id": 77, "owner": "BOWDEN/HUNDLEY", "size": "20X20?", "notes": null, "plots": null}}, {"type": "Feature", "geometry": {"type": "Polygon", "coordinates": [[[-76.96742357199997, 36.87928912000007], [-76.96740536899995, 36.879328583000074], [-76.96736493399999, 36.879314469000064], [-76.96738499599996, 36.879276305000076], [-76.96742357199997, 36.87928912000007]]]}, "properties": {"id": 78, "owner": "J. ALLEN STEPHENSON", "size": "11X15", "notes": null, "plots": null}}, {"type": "Feature", "geometry": {"type": "Polygon", "coordinates": [[[-76.96745507399999, 36.87942258000004], [-76.96743548999996, 36.87946942000008], [-76.96739852499996, 36.879458003000025], [-76.96741934899995, 36.879411564000065], [-76.96745507399999, 36.87942258000004]]]}, "properties": {"id": 82, "owner": "CHARLIE MUMFORD", "size": "10X18 UNMARKED", "notes": null, "plots": null}}, {"type": "Feature", "geometry": {"type": "Polygon", "coordinates": [[[-76.96743536699995, 36.879469320000055], [-76.96741216999999, 36.879522637000036], [-76.96737573099995, 36.879511458000025], [-76.96739840099997, 36.87945770500005], [-76.96743536699995, 36.879469320000055]]]}, "properties": {"id": 83, "owner": "LANNIE CHITWOOD", "size": "10X20 UNMARKED", "notes": null, "plots": null}}, {"type": "Feature", "geometry": {"type": "Polygon", "coordinates": [[[-76.96787895099999, 36.87944247300004], [-76.96791000699994, 36.87945472900003], [-76.96787972099997, 36.87950318900005], [-76.96785000699998, 36.879490935000035], [-76.96787895099999, 36.87944247300004]]]}, "properties": {"id": 84, "owner": "L.A. BRADSHAW", "size": "10X20", "notes": null, "plots": null}}, {"type": "Feature", "geometry": {"type": "Polygon", "coordinates": [[[-76.96787972099997, 36.87950336800003], [-76.96786485699994, 36.87952822500006], [-76.96783469499996, 36.87951617700003], [-76.96784978399995, 36.879490935000035], [-76.96787972099997, 36.87950336800003]]]}, "properties": {"id": 85, "owner": "EARL & DELORES PARKER", "size": "10X10", "notes": null, "plots": null}}, {"type": "Feature", "geometry": {"type": "Polygon", "coordinates": [[[-76.96766543199999, 36.87962044400007], [-76.96760416899997, 36.87972249000006], [-76.96757485599994, 36.879711185000076], [-76.96763626199998, 36.879610186000036], [-76.96766543199999, 36.87962044400007]]]}, "properties": {"id": 86, "owner": "CHRIS & MELISSA CORNWELL", "size": "10X40", "notes": "PAID $1200, $350 PER PLOT PER 2011 POLICY PRICE", "plots": "M20, M21, M22, M23, M24, M25, M26, M27"}}, {"type": "Feature", "geometry": {"type": "Polygon", "coordinates": [[[-76.96762858699998, 36.879697418000035], [-76.96763612099994, 36.87968499400006], [-76.96766611599998, 36.87969674300007], [-76.96765858299995, 36.87970916800003], [-76.96762858699998, 36.879697418000035]], [[-76.96756222499994, 36.87986924000006], [-76.96756961499995, 36.879857051000045], [-76.96760014799997, 36.87986901100004], [-76.96759284399997, 36.87988123400004], [-76.96756222499994, 36.87986924000006]]]}, "properties": {"id": 87, "owner": "Neil Cutright", "size": "10X10", "notes": null, "plots": "F20, F21"}}]}