{"type": "FeatureCollection", "features": [{"type": "Feature", "geometry": {"type": "Point", "coordinates": [-76.96727934299997, 36.87918059100008]}, "properties": {"id": 1, "label": "B", "owner": "BULLS"}}, {"type": "Feature", "geometry": {"type": "Point", "coordinates": [-76.96755682899999, 36.87928776700005]}, "properties": {"id": 2, "label": null, "owner": null}}, {"type": "Feature", "geometry": {"type": "Point", "coordinates": [-76.96754046899997, 36.879317452000066]}, "properties": {"id": 3, "label": null, "owner": null}}, {"type": "Feature", "geometry": {"type": "Point", "coordinates": [-76.96764561199996, 36.87935482300003]}, "properties": {"id": 4, "label": null, "owner": null}}, {"type": "Feature", "geometry": {"type": "Point", "coordinates": [-76.96791788599995, 36.879453685000044]}, "properties": {"id": 5, "label": null, "owner": null}}, {"type": "Feature", "geometry": {"type": "Point", "coordinates": [-76.96774087499995, 36.87963441900007]}, "properties": {"id": 6, "label": null, "owner": null}}, {"type": "Feature", "geometry": {"type": "Point", "coordinates": [-76.96771103999998, 36.879620740000064]}, "properties": {"id": 7, "label": null, "owner": null}}, {"type": "Feature", "geometry": {"type": "Point", "coordinates": [-76.96768217899995, 36.87961000800004]}, "properties": {"id": 8, "label": null, "owner": null}}, {"type": "Feature", "geometry": {"type": "Point", "coordinates": [-76.96766472199994, 36.879619053000056]}, "properties": {"id": 9, "label": null, "owner": null}}, {"type": "Feature", "geometry": {"type": "Point", "coordinates": [-76.96763692999997, 36.87961006300003]}, "properties": {"id": 10, "label": null, "owner": null}}, {"type": "Feature", "geometry": {"type": "Point", "coordinates": [-76.96759997999999, 36.87964242000004]}, "properties": {"id": 11, "label": null, "owner": null}}, {"type": "Feature", "geometry": {"type": "Point", "coordinates": [-76.96757119299997, 36.87963362600004]}, "properties": {"id": 12, "label": null, "owner": null}}, {"type": "Feature", "geometry": {"type": "Point", "coordinates": [-76.96762685799996, 36.87959511200006]}, "properties": {"id": 13, "label": null, "owner": null}}, {"type": "Feature", "geometry": {"type": "Point", "coordinates": [-76.96759605199998, 36.87958406400003]}, "properties": {"id": 14, "label": null, "owner": null}}, {"type": "Feature", "geometry": {"type": "Point", "coordinates": [-76.96751978399999, 36.879571285000054]}, "properties": {"id": 15, "label": null, "owner": null}}, {"type": "Feature", "geometry": {"type": "Point", "coordinates": [-76.96749304999997, 36.879561042000034]}, "properties": {"id": 16, "label": null, "owner": null}}, {"type": "Feature", "geometry": {"type": "Point", "coordinates": [-76.96755389999998, 36.87950552700005]}, "properties": {"id": 17, "label": null, "owner": null}}, {"type": "Feature", "geometry": {"type": "Point", "coordinates": [-76.96752497199998, 36.87949552200007]}, "properties": {"id": 18, "label": null, "owner": null}}, {"type": "Feature", "geometry": {"type": "Point", "coordinates": [-76.96761664699994, 36.87954487600007]}, "properties": {"id": 19, "label": null, "owner": null}}, {"type": "Feature", "geometry": {"type": "Point", "coordinates": [-76.96753298399994, 36.87954784400006]}, "properties": {"id": 20, "label": null, "owner": null}}, {"type": "Feature", "geometry": {"type": "Point", "coordinates": [-76.96750335099995, 36.879537225000036]}, "properties": {"id": 21, "label": null, "owner": null}}, {"type": "Feature", "geometry": {"type": "Point", "coordinates": [-76.96760992499998, 36.879424603000075]}, "properties": {"id": 22, "label": null, "owner": null}}, {"type": "Feature", "geometry": {"type": "Point", "coordinates": [-76.96764178199999, 36.87943647800006]}, "properties": {"id": 23, "label": null, "owner": null}}, {"type": "Feature", "geometry": {"type": "Point", "coordinates": [-76.96769843699997, 36.87945872700004]}, "properties": {"id": 24, "label": null, "owner": null}}, {"type": "Feature", "geometry": {"type": "Point", "coordinates": [-76.96774077199996, 36.87938845000008]}, "properties": {"id": 25, "label": null, "owner": null}}, {"type": "Feature", "geometry": {"type": "Point", "coordinates": [-76.96767765199996, 36.87936503800006]}, "properties": {"id": 27, "label": null, "owner": null}}, {"type": "Feature", "geometry": {"type": "Point", "coordinates": [-76.96748085599995, 36.87945908000006]}, "properties": {"id": 28, "label": null, "owner": null}}, {"type": "Feature", "geometry": {"type": "Point", "coordinates": [-76.96744467799994, 36.87944796200003]}, "properties": {"id": 29, "label": null, "owner": null}}, {"type": "Feature", "geometry": {"type": "Point", "coordinates": [-76.96749236499994, 36.87943469900006]}, "properties": {"id": 30, "label": null, "owner": null}}, {"type": "Feature", "geometry": {"type": "Point", "coordinates": [-76.96745502199997, 36.87942248400003]}, "properties": {"id": 31, "label": null, "owner": null}}, {"type": "Feature", "geometry": {"type": "Point", "coordinates": [-76.96756955999996, 36.879405537000025]}, "properties": {"id": 32, "label": null, "owner": null}}, {"type": "Feature", "geometry": {"type": "Point", "coordinates": [-76.96760044299998, 36.87941714800007]}, "properties": {"id": 33, "label": null, "owner": null}}, {"type": "Feature", "geometry": {"type": "Point", "coordinates": [-76.96755941499998, 36.879391299000076]}, "properties": {"id": 34, "label": null, "owner": null}}, {"type": "Feature", "geometry": {"type": "Point", "coordinates": [-76.96752774999999, 36.87938045000004]}, "properties": {"id": 35, "label": null, "owner": null}}, {"type": "Feature", "geometry": {"type": "Point", "coordinates": [-76.96750628199999, 36.87942577100006]}, "properties": {"id": 36, "label": null, "owner": null}}, {"type": "Feature", "geometry": {"type": "Point", "coordinates": [-76.96753797499997, 36.87943551300003]}, "properties": {"id": 37, "label": null, "owner": null}}, {"type": "Feature", "geometry": {"type": "Point", "coordinates": [-76.96776450999994, 36.87939726700006]}, "properties": {"id": 38, "label": null, "owner": null}}, {"type": "Feature", "geometry": {"type": "Point", "coordinates": [-76.96778130299998, 36.87940323300006]}, "properties": {"id": 39, "label": null, "owner": null}}, {"type": "Feature", "geometry": {"type": "Point", "coordinates": [-76.96730960599996, 36.879192758000045]}, "properties": {"id": 40, "label": "B", "owner": "BULLS"}}, {"type": "Feature", "geometry": {"type": "Point", "coordinates": [-76.96729450399994, 36.87921955500008]}, "properties": {"id": 41, "label": "B", "owner": "BULLS"}}, {"type": "Feature", "geometry": {"type": "Point", "coordinates": [-76.96726373299998, 36.87920612000005]}, "properties": {"id": 42, "label": "B", "owner": "BULLS"}}, {"type": "Feature", "geometry": {"type": "Point", "coordinates": [-76.96731727199995, 36.879196371000035]}, "properties": {"id": 43, "label": "L", "owner": "W. WEST LAINE"}}, {"type": "Feature", "geometry": {"type": "Point", "coordinates": [-76.96733366899997, 36.87923768500008]}, "properties": {"id": 45, "label": "S", "owner": "BOBBY STEPHENSON"}}, {"type": "Feature", "geometry": {"type": "Point", "coordinates": [-76.96734885099994, 36.87920875300006]}, "properties": {"id": 46, "label": "L", "owner": "W. WEST LAINE"}}, {"type": "Feature", "geometry": {"type": "Point", "coordinates": [-76.96735963699996, 36.87921339800005]}, "properties": {"id": 47, "label": "S", "owner": "FLOYD STEPHENSON"}}, {"type": "Feature", "geometry": {"type": "Point", "coordinates": [-76.96739797199996, 36.87922741800003]}, "properties": {"id": 48, "label": "S", "owner": "FLOYD STEPHENSON"}}, {"type": "Feature", "geometry": {"type": "Point", "coordinates": [-76.96737491899995, 36.879272066000055]}, "properties": {"id": 49, "label": "S", "owner": "FLOYD STEPHENSON"}}, {"type": "Feature", "geometry": {"type": "Point", "coordinates": [-76.96733845799997, 36.87925898900005]}, "properties": {"id": 50, "label": "S", "owner": "FLOYD STEPHENSON"}}, {"type": "Feature", "geometry": {"type": "Point", "coordinates": [-76.96740876899997, 36.87923052200006]}, "properties": {"id": 51, "label": "W", "owner": "KENNETH WHITFIELD"}}, {"type": "Feature", "geometry": {"type": "Point", "coordinates": [-76.96742266099994, 36.87928932900007]}, "properties": {"id": 53, "label": "W", "owner": "KENNETH WHITFIELD"}}, {"type": "Feature", "geometry": {"type": "Point", "coordinates": [-76.96744416199994, 36.87924451500004]}, "properties": {"id": 54, "label": "W", "owner": "KENNETH WHITFIELD"}}, {"type": "Feature", "geometry": {"type": "Point", "coordinates": [-76.96745403099999, 36.87924874600003]}, "properties": {"id": 55, "label": null, "owner": null}}, {"type": "Feature", "geometry": {"type": "Point", "coordinates": [-76.96743917299995, 36.87927794500007]}, "properties": {"id": 56, "label": null, "owner": null}}, {"type": "Feature", "geometry": {"type": "Point", "coordinates": [-76.96741323499998, 36.879329968000036]}, "properties": {"id": 57, "label": null, "owner": null}}, {"type": "Feature", "geometry": {"type": "Point", "coordinates": [-76.96747741199994, 36.87935438200003]}, "properties": {"id": 58, "label": null, "owner": null}}, {"type": "Feature", "geometry": {"type": "Point", "coordinates": [-76.96750345599997, 36.87930073500007]}, "properties": {"id": 59, "label": null, "owner": null}}, {"type": "Feature", "geometry": {"type": "Point", "coordinates": [-76.96751820599997, 36.879272367000056]}, "properties": {"id": 60, "label": null, "owner": null}}, {"type": "Feature", "geometry": {"type": "Point", "coordinates": [-76.96752079399994, 36.87927339300006]}, "properties": {"id": 61, "label": null, "owner": null}}, {"type": "Feature", "geometry": {"type": "Point", "coordinates": [-76.96749402399996, 36.87932901100004]}, "properties": {"id": 62, "label": null, "owner": null}}, {"type": "Feature", "geometry": {"type": "Point", "coordinates": [-76.96752937599996, 36.87934078600006]}, "properties": {"id": 63, "label": null, "owner": null}}, {"type": "Feature", "geometry": {"type": "Point", "coordinates": [-76.96754191399998, 36.87934888800004]}, "properties": {"id": 64, "label": null, "owner": null}}, {"type": "Feature", "geometry": {"type": "Point", "coordinates": [-76.96757915299997, 36.879363427000044]}, "properties": {"id": 65, "label": null, "owner": null}}, {"type": "Feature", "geometry": {"type": "Point", "coordinates": [-76.96759450999997, 36.87933374800008]}, "properties": {"id": 66, "label": null, "owner": null}}, {"type": "Feature", "geometry": {"type": "Point", "coordinates": [-76.96755557299997, 36.87932156900007]}, "properties": {"id": 67, "label": null, "owner": null}}, {"type": "Feature", "geometry": {"type": "Point", "coordinates": [-76.96716648899996, 36.87944010800004]}, "properties": {"id": 68, "label": null, "owner": null}}, {"type": "Feature", "geometry": {"type": "Point", "coordinates": [-76.96728167499998, 36.87926193200008]}, "properties": {"id": 69, "label": "S", "owner": "BOBBY STEPHENSON"}}, {"type": "Feature", "geometry": {"type": "Point", "coordinates": [-76.96731405299994, 36.87927383700003]}, "properties": {"id": 70, "label": "S", "owner": "BOBBY STEPHENSON"}}, {"type": "Feature", "geometry": {"type": "Point", "coordinates": [-76.96730910399998, 36.87928853500006]}, "properties": {"id": 71, "label": null, "owner": null}}, {"type": "Feature", "geometry": {"type": "Point", "coordinates": [-76.96727873899994, 36.87928045100006]}, "properties": {"id": 72, "label": null, "owner": null}}, {"type": "Feature", "geometry": {"type": "Point", "coordinates": [-76.96730592999995, 36.87929816600007]}, "properties": {"id": 73, "label": null, "owner": null}}, {"type": "Feature", "geometry": {"type": "Point", "coordinates": [-76.96727584899998, 36.87928958200007]}, "properties": {"id": 74, "label": null, "owner": null}}, {"type": "Feature", "geometry": {"type": "Point", "coordinates": [-76.96730004799997, 36.879310102000034]}, "properties": {"id": 75, "label": null, "owner": null}}, {"type": "Feature", "geometry": {"type": "Point", "coordinates": [-76.96731688099999, 36.87931400700006]}, "properties": {"id": 76, "label": null, "owner": null}}, {"type": "Feature", "geometry": {"type": "Point", "coordinates": [-76.96726848099996, 36.87929933300006]}, "properties": {"id": 77, "label": null, "owner": null}}, {"type": "Feature", "geometry": {"type": "Point", "coordinates": [-76.96733396199994, 36.87926457000003]}, "properties": {"id": 78, "label": null, "owner": null}}, {"type": "Feature", "geometry": {"type": "Point", "coordinates": [-76.96737262499994, 36.879278630000044]}, "properties": {"id": 79, "label": null, "owner": null}}, {"type": "Feature", "geometry": {"type": "Point", "coordinates": [-76.96732183999995, 36.87929157200006]}, "properties": {"id": 80, "label": null, "owner": null}}, {"type": "Feature", "geometry": {"type": "Point", "coordinates": [-76.96735983399998, 36.879306119000034]}, "properties": {"id": 81, "label": null, "owner": null}}, {"type": "Feature", "geometry": {"type": "Point", "coordinates": [-76.96739120299998, 36.879406051000046]}, "properties": {"id": 82, "label": null, "owner": null}}, {"type": "Feature", "geometry": {"type": "Point", "coordinates": [-76.96732622099995, 36.879385737000064]}, "properties": {"id": 83, "label": null, "owner": null}}, {"type": "Feature", "geometry": {"type": "Point", "coordinates": [-76.96775140199998, 36.87948063600004]}, "properties": {"id": 84, "label": null, "owner": null}}, {"type": "Feature", "geometry": {"type": "Point", "coordinates": [-76.96772139699993, 36.87947006600007]}, "properties": {"id": 85, "label": null, "owner": null}}, {"type": "Feature", "geometry": {"type": "Point", "coordinates": [-76.96769509699999, 36.87951144800007]}, "properties": {"id": 86, "label": null, "owner": null}}, {"type": "Feature", "geometry": {"type": "Point", "coordinates": [-76.96772414899993, 36.879522017000056]}, "properties": {"id": 87, "label": null, "owner": null}}, {"type": "Feature", "geometry": {"type": "Point", "coordinates": [-76.96766655899995, 36.87956065800006]}, "properties": {"id": 88, "label": null, "owner": null}}, {"type": "Feature", "geometry": {"type": "Point", "coordinates": [-76.96769434899994, 36.87957098700008]}, "properties": {"id": 89, "label": null, "owner": null}}, {"type": "Feature", "geometry": {"type": "Point", "coordinates": [-76.96749103299999, 36.87942604600005]}, "properties": {"id": 90, "label": null, "owner": null}}, {"type": "Feature", "geometry": {"type": "Point", "coordinates": [-76.96744135199998, 36.879364268000074]}, "properties": {"id": 91, "label": null, "owner": null}}, {"type": "Feature", "geometry": {"type": "Point", "coordinates": [-76.96750891499994, 36.87938356700005]}, "properties": {"id": 92, "label": null, "owner": null}}, {"type": "Feature", "geometry": {"type": "Point", "coordinates": [-76.96754567099998, 36.87945606200003]}, "properties": {"id": 93, "label": null, "owner": null}}, {"type": "Feature", "geometry": {"type": "Point", "coordinates": [-76.96757447599998, 36.87946614700007]}, "properties": {"id": 94, "label": null, "owner": null}}, {"type": "Feature", "geometry": {"type": "Point", "coordinates": [-76.96753215899997, 36.87954855300006]}, "properties": {"id": 95, "label": null, "owner": null}}, {"type": "Feature", "geometry": {"type": "Point", "coordinates": [-76.96750355699999, 36.87953830400005]}, "properties": {"id": 96, "label": null, "owner": null}}, {"type": "Feature", "geometry": {"type": "Point", "coordinates": [-76.96759475099998, 36.87958579800005]}, "properties": {"id": 97, "label": null, "owner": null}}, {"type": "Feature", "geometry": {"type": "Point", "coordinates": [-76.96770537599997, 36.87957304300005]}, "properties": {"id": 98, "label": null, "owner": null}}, {"type": "Feature", "geometry": {"type": "Point", "coordinates": [-76.96770644799994, 36.879571371000054]}, "properties": {"id": 99, "label": null, "owner": null}}, {"type": "Feature", "geometry": {"type": "Point", "coordinates": [-76.96774355699995, 36.879575584000065]}, "properties": {"id": 100, "label": null, "owner": null}}, {"type": "Feature", "geometry": {"type": "Point", "coordinates": [-76.96774424399996, 36.87957406800007]}, "properties": {"id": 101, "label": null, "owner": null}}, {"type": "Feature", "geometry": {"type": "Point", "coordinates": [-76.96777242999997, 36.879586208000035]}, "properties": {"id": 102, "label": null, "owner": null}}, {"type": "Feature", "geometry": {"type": "Point", "coordinates": [-76.96777171199994, 36.87958738400005]}, "properties": {"id": 103, "label": null, "owner": null}}, {"type": "Feature", "geometry": {"type": "Point", "coordinates": [-76.96772772399999, 36.87953480300007]}, "properties": {"id": 104, "label": null, "owner": null}}, {"type": "Feature", "geometry": {"type": "Point", "coordinates": [-76.96772879499997, 36.87953308900006]}, "properties": {"id": 105, "label": null, "owner": null}}, {"type": "Feature", "geometry": {"type": "Point", "coordinates": [-76.96775743999996, 36.87954717700006]}, "properties": {"id": 106, "label": null, "owner": null}}, {"type": "Feature", "geometry": {"type": "Point", "coordinates": [-76.96775912099997, 36.879545423000025]}, "properties": {"id": 107, "label": null, "owner": null}}, {"type": "Feature", "geometry": {"type": "Point", "coordinates": [-76.96777522299999, 36.87952792200008]}, "properties": {"id": 108, "label": null, "owner": null}}, {"type": "Feature", "geometry": {"type": "Point", "coordinates": [-76.96780428099999, 36.879539315000045]}, "properties": {"id": 109, "label": null, "owner": null}}, {"type": "Feature", "geometry": {"type": "Point", "coordinates": [-76.96780545499996, 36.87953735600007]}, "properties": {"id": 110, "label": null, "owner": null}}, {"type": "Feature", "geometry": {"type": "Point", "coordinates": [-76.96779356699994, 36.87949699600006]}, "properties": {"id": 111, "label": null, "owner": null}}, {"type": "Feature", "geometry": {"type": "Point", "coordinates": [-76.96779487199996, 36.87949548100005]}, "properties": {"id": 112, "label": null, "owner": null}}, {"type": "Feature", "geometry": {"type": "Point", "coordinates": [-76.96780781099994, 36.87947752000008]}, "properties": {"id": 113, "label": null, "owner": null}}, {"type": "Feature", "geometry": {"type": "Point", "coordinates": [-76.96783797799998, 36.87948719600007]}, "properties": {"id": 114, "label": null, "owner": null}}, {"type": "Feature", "geometry": {"type": "Point", "coordinates": [-76.96782375699996, 36.879449460000046]}, "properties": {"id": 115, "label": null, "owner": null}}, {"type": "Feature", "geometry": {"type": "Point", "coordinates": [-76.96783810599999, 36.87942439900007]}, "properties": {"id": 116, "label": null, "owner": null}}, {"type": "Feature", "geometry": {"type": "Point", "coordinates": [-76.96786723899999, 36.879435415000046]}, "properties": {"id": 117, "label": null, "owner": null}}, {"type": "Feature", "geometry": {"type": "Point", "coordinates": [-76.96785249299995, 36.87945939000008]}, "properties": {"id": 118, "label": null, "owner": null}}, {"type": "Feature", "geometry": {"type": "Point", "coordinates": [-76.96780910599995, 36.87947192300004]}, "properties": {"id": 119, "label": null, "owner": null}}, {"type": "Feature", "geometry": {"type": "Point", "coordinates": [-76.96781028199996, 36.87947035500008]}, "properties": {"id": 120, "label": null, "owner": null}}, {"type": "Feature", "geometry": {"type": "Point", "coordinates": [-76.96777464399997, 36.87945815300003]}, "properties": {"id": 121, "label": null, "owner": null}}, {"type": "Feature", "geometry": {"type": "Point", "coordinates": [-76.96777539699997, 36.87945650800003]}, "properties": {"id": 122, "label": null, "owner": null}}, {"type": "Feature", "geometry": {"type": "Point", "coordinates": [-76.96776749399999, 36.879454563000024]}, "properties": {"id": 123, "label": null, "owner": null}}, {"type": "Feature", "geometry": {"type": "Point", "coordinates": [-76.96780431499997, 36.87941250000006]}, "properties": {"id": 124, "label": null, "owner": null}}, {"type": "Feature", "geometry": {"type": "Point", "coordinates": [-76.96783640699994, 36.87942378300005]}, "properties": {"id": 125, "label": null, "owner": null}}, {"type": "Feature", "geometry": {"type": "Point", "coordinates": [-76.96779547999995, 36.87940877200003]}, "properties": {"id": 126, "label": null, "owner": null}}, {"type": "Feature", "geometry": {"type": "Point", "coordinates": [-76.96788645099997, 36.879441503000066]}, "properties": {"id": 127, "label": null, "owner": null}}, {"type": "Feature", "geometry": {"type": "Point", "coordinates": [-76.96785393199997, 36.87949353500005]}, "properties": {"id": 128, "label": null, "owner": null}}, {"type": "Feature", "geometry": {"type": "Point", "coordinates": [-76.96788533999995, 36.87950590000003]}, "properties": {"id": 129, "label": null, "owner": null}}, {"type": "Feature", "geometry": {"type": "Point", "coordinates": [-76.96730327999995, 36.879223343000035]}, "properties": {"id": 130, "label": "L", "owner": "W. WEST LAINE"}}, {"type": "Feature", "geometry": {"type": "Point", "coordinates": [-76.96733411399998, 36.87923678000004]}, "properties": {"id": 131, "label": "L", "owner": "W. WEST LAINE"}}, {"type": "Feature", "geometry": {"type": "Point", "coordinates": [-76.96730236099995, 36.87922513800004]}, "properties": {"id": 132, "label": "S", "owner": "BOBBY STEPHENSON"}}, {"type": "Feature", "geometry": {"type": "Point", "coordinates": [-76.96738616499994, 36.879275490000055]}, "properties": {"id": 134, "label": "W", "owner": "KENNETH WHITFIELD"}}]}